id;title;description;streetAddress;postalCode;addressLocality;telefonos;fax;email;url;image;logo;socioHoreca;accesibilidad;comment;categoria;habitaciones;camas;geometry;lastUpdated;link;uri;sameAs
"https://www.zaragoza.es/sede/portal/turismo/servicio/alojamiento/49";"HOTEL EUROSTARS BOSTON";"Cmno. de las Torres, 28 <strong><abbr title=""Teléfono"">Tel.:</abbr></strong> 976 59 91 92";"Cmno. de las Torres, 28";"50008";"Zaragoza";"976 59 91 92";"976 59 74 10";"comercial@hotelboston.es";"http://www.eurostarshotels.com/eurostars-boston.html";"//www.zaragoza.es/cont/paginas/turismo/oficina/rsc/img/empresa/boston.jpg";"//www.zaragoza.es/cont/paginas/turismo/oficina/rsc/img/empresa/021.%20L_Boston.png";"true";"<div><img src=""/cont/paginas/sinbarreras/img/icono_silla1.jpg"" alt=""Accesible""/> Accesible</div><ul><li><strong> Aparcamiento</strong>: No tiene plazas reservadas. </li><li><strong>Acceso</strong>: Elevador salva- escaleras en puerta principal. Puerta secundaria al ras del suelo.   Puerta automatica y giratoria.   </li><li><strong>Movilidad en el interior del edificio:</strong><ul><li><strong>Zonas comunes:</strong><ul><li>Recepción no adaptada en altura </li><li>Espacios Amplios: Sí</li><li>Ascensor Adaptado: Sí. Marcadores visuales en altura.</li><li>  Acceso al restaurante desde el hotel mediante ascensor. </li><li>Cafetería: Acceso adaptado mediante rampa de gran pendiente. Acceso al menú de la cafetería con escalón. No accesible. Mesas altas  </li><li> Restaurante y Piano bar acceso mediante ascensor en planta -1 </li><li>Aseos adaptados  </li></ul></li><li><strong>Habitaciones:</strong><ul><li> Habitaciones Adaptadas: Dispone de 7.</li><li>Puertas: Adaptadas en anchura.</li><li>Espacios Amplios. Sí, no hay dificultad de giro </li><li>Aseos Adaptados: Sí. Ducha a cota cero con con banqueta. El wc con alza elevadora y barras abatibles. El lavabo está suspendido en la pared. Espejo colgado</li></ul></li></ul></li></ul><p><em>Información facilitada por Disminuidos Físicos de Aragón</em></p>";"El hotel dispone de los siguientes servicios, acceso minusválidos, admite tarjetas de crédito, aire acondiconado, ascensor, bar-cafetería, caja fuerte, calefacción, cambio de moneda, discoteca, garage, gimnasio, minibar, parking, radio, restaurante, salón de reuniones, sala de juegos, sauna, secador de pelo, servicio habitaciones 24 horas, servicio médico, teléfono, televisión, tiendas, traducción simultánea, tv satélite, vídeo.";"Hotel 4 estrellas";"315";"598";"676927.21 4612798.85";2021-04-22T07:49:38Z;"https://www.zaragoza.es/sede/portal/turismo/servicio/alojamiento/49";"https://www.zaragoza.es/sede/portal/turismo/servicio/alojamiento/49";"http://www.zaragoza.es/api/recurso/turismo/alojamiento/49"
"https://www.zaragoza.es/sede/portal/turismo/servicio/alojamiento/29668";"HOTEL EUROSTARS ZARAGOZA";"C/ Miquel Roca i Junyent, 5 - Estación Delicias <strong><abbr title=""Teléfono"">Tel.:</abbr></strong> 976 28 72 60";"C/ Miquel Roca i Junyent, 5 - Estación Delicias";"50011";"Zaragoza";"976 28 72 60";"";"reservas@eurostarszaragoza.com";"";"";"";"";"";"";"Hotel 4 estrellas";"256";"508";"";2021-05-06T11:11:13Z;"https://www.zaragoza.es/sede/portal/turismo/servicio/alojamiento/29668";"https://www.zaragoza.es/sede/portal/turismo/servicio/alojamiento/29668";"http://www.zaragoza.es/api/recurso/turismo/alojamiento/29668"
"https://www.zaragoza.es/sede/portal/turismo/servicio/alojamiento/16";"HOTEL PALAFOX";"C/ Marqués de Casa Jiménez s/n <strong><abbr title=""Teléfono"">Tel.:</abbr></strong> 976 23 77 00";"C/ Marqués de Casa Jiménez s/n";"50004";"Zaragoza";"976 23 77 00";"976 23 47 05";"hotelpalafox@palafoxhoteles.com";"http://www.palafoxhoteles.com";"//www.zaragoza.es/cont/paginas/turismo/oficina/rsc/img/empresa/022.%20I_PalafoxCervantes.jpg";"//www.zaragoza.es/cont/paginas/turismo/oficina/rsc/img/empresa/022.%20L_Palafox.jpg";"true";"<p><strong>Accesibilidad Física: </strong></p><ul><li>Dispone de 1 habitación adaptada para personas con movilidad reducida.</li></ul><p><em>Información facilitada por el hotel</em></p>";"Situado en el centro de la ciudad, cuenta con 179 habitaciones de las cuales 5 son suites.


Cuenta con Centro de Negocios de 1.000m2, salones para convenciones y banquetes hasta de 800 a 1000 personas y con auditorio de congresos para 375 personas.

Parking privado para turismos y autobuses. piscina exterior, Sauna, Wifi Gratuito.";"Hotel 5 estrellas";"179";"343";"676187.38 4613359.0";2021-08-13T18:58:00Z;"https://www.zaragoza.es/sede/portal/turismo/servicio/alojamiento/16";"https://www.zaragoza.es/sede/portal/turismo/servicio/alojamiento/16";"http://www.zaragoza.es/api/recurso/turismo/alojamiento/16"
"https://www.zaragoza.es/sede/portal/turismo/servicio/alojamiento/12732";"HOTEL REINA PETRONILA";"C/ Alcalde Sáinz de Varanda, 2 <strong><abbr title=""Teléfono"">Tel.:</abbr></strong> 876 541 136";"C/ Alcalde Sáinz de Varanda, 2";"50009";"Zaragoza";"876 541 136";"876 54 11 33";"hotelreinapetronila@palafoxhoteles.com";"http://www.palafoxhoteles.com";"//www.zaragoza.es/cont/paginas/turismo/oficina/rsc/img/empresa/200.%20I_Condes%20Barcelona.jpg";"//www.zaragoza.es/cont/paginas/turismo/oficina/rsc/img/empresa/025-hotel-reina-petronila.gif";"true";"";"Inaugurado marzo 2010
		
Ubicado en el extremo del centro comercial y de ocio Aragonia, próximo al estadio de la Romareda, el Auditorio y los hospitales. Cuenta con 185 habitaciones y una amplia gama de Suites, auditorio de 600 plazas equipado con las últimas tecnologías, salas de reuniones con capacidades varias hasta 600 personas en el salón principal. Además dispone de spa, gimnasio, aparcamiento privado en el mismo edificio con plazas para autocares y room service 24 horas.";"Hotel 5 estrellas";"177";"354";"676430.67 4611871.0";2021-04-22T07:49:38Z;"https://www.zaragoza.es/sede/portal/turismo/servicio/alojamiento/12732";"https://www.zaragoza.es/sede/portal/turismo/servicio/alojamiento/12732";"http://www.zaragoza.es/api/recurso/turismo/alojamiento/12732"
"https://www.zaragoza.es/sede/portal/turismo/servicio/alojamiento/13639";"HOTEL DIAGONAL PLAZA";"Avda. Diagonal Plaza, s/n - Plataforma Logística de Zaragoza <strong><abbr title=""Teléfono"">Tel.:</abbr></strong> 876 111 000";"Avda. Diagonal Plaza, s/n - Plataforma Logística de Zaragoza";"50197";"Zaragoza";"876 111 000";"876 111 150";"direccion.diagonalplaza@h-santos.es";"http://www.h-santos.es";"//www.zaragoza.es/cont/paginas/turismo/oficina/rsc/img/empresa/diagonalplazaa.jpg";"//www.zaragoza.es/cont/paginas/turismo/oficina/rsc/img/empresa/038-hotel-diagonal.gif";"true";"";"Apertura junio 2008.
Dispone de 250 plazas de parking propio.";"Hotel 4 estrellas";"176";"348";"666921.02 4612974.22";2021-04-22T07:49:38Z;"https://www.zaragoza.es/sede/portal/turismo/servicio/alojamiento/13639";"https://www.zaragoza.es/sede/portal/turismo/servicio/alojamiento/13639";"http://www.zaragoza.es/api/recurso/turismo/alojamiento/13639"
"https://www.zaragoza.es/sede/portal/turismo/servicio/alojamiento/15840";"HOTEL HIBERUS";"Pº de los Puentes, 2 <strong><abbr title=""Teléfono"">Tel.:</abbr></strong> 876 542 008";"Pº de los Puentes, 2";"50018";"Zaragoza";"876 542 008";"876 54 20 09";"hotelhiberus@palafoxhoteles.com";"http://www.palafoxhoteles.com";"//www.zaragoza.es/cont/paginas/turismo/oficina/rsc/img/empresa/030.%20I_H.%20Hiberus.jpg";"//www.zaragoza.es/cont/paginas/turismo/oficina/rsc/img/empresa/022-hiberus.gif";"true";"<div><img src=""/cont/paginas/sinbarreras/img/icono_silla1.jpg"" alt=""""/> Accesible</div><ul><li><strong>Aparcamiento</strong>: 2 plazas reservadas, una cada  planta. (Falta la señalización vertical). Acceso directo al hotel con ascensor adaptado. Aparcamiento exterior.</li><li><strong>Acceso</strong>: Adaptado, a cota cero</li><li><strong>Entrada</strong>: Adaptada, con puertas automáticas de cristal. (Faltan bandas adhesivas diferenciadoras)</li><li><strong>Recepción</strong>: Mostrador no adaptado</li><li><strong>Movilidad en el interior del edificio:</strong><ul><li><strong>Zonas comunes:</strong><ul><li> Cafetería: Mostrador no adaptado en altura. Servicio de mesas con soporte central </li><li>Restaurante: Adaptado, las mesas con  soporte central y espacios amplios para la movilidad </li><li>Aseos: Adaptados, el inodoro no cumple en altura. (45 y 50 cm)</li><li>Pavimento: antideslizante y zonas de moqueta</li><li>Espacios Amplios: Sí</li><li>Ascensor Adaptado:Sí, con sistema sonoro</li><li>Salones: Adaptados para convenciones.</li></ul></li><li><strong>Habitaciones:</strong><ul><li> Habitaciones Adaptadas: 4, una por planta</li><li>Puertas: Ancho 80 cm</li><li>Espacios libres de paso con más de 80 cm. Y permiten realizar giros de 150 cm. De diámetro.</li><li> Armarios  adaptados, perchas, cajones y baldas.</li><li> Dispone de servicio de bar.</li><li>Aseos: Sí. Ducha a cota cero con asiento auxiliar. Inodoro con barras de apoyo, móvil y fija, y permite realizar giros de 150 cm. de diámetro</li><li>Espacios Amplios. Sí, no hay dificultad de giro. Pavimento de moqueta          </li></ul></li></ul></li></ul><p><em>Información facilitada por Disminuidos Físicos de Aragón</em></p>";"Dispone de parking propio.";"Hotel 4 estrellas";"176";"344";"674267.91 4615259.49";2021-04-22T07:49:38Z;"https://www.zaragoza.es/sede/portal/turismo/servicio/alojamiento/15840";"https://www.zaragoza.es/sede/portal/turismo/servicio/alojamiento/15840";"http://www.zaragoza.es/api/recurso/turismo/alojamiento/15840"
"https://www.zaragoza.es/sede/portal/turismo/servicio/alojamiento/12744";"HOTEL EUROSTARS REY FERNANDO";"C/ Bari nº 27 - Plataforma Logística Plaza, Parcela EC-1 <strong><abbr title=""Teléfono"">Tel.:</abbr></strong> 876 26 95 26";"C/ Bari nº 27 - Plataforma Logística Plaza, Parcela EC-1";"50197";"Zaragoza";"876 26 95 26";"876 26 95 27";"reservas@eurostarsreyfernando.com";"http://http://www.eurostarshotels.com/eurostars-rey-fernando.html";"//www.zaragoza.es/cont/paginas/turismo/oficina/rsc/img/empresa/reyfernando2.jpg";"//www.zaragoza.es/cont/paginas/turismo/oficina/rsc/img/empresa/034-rey-fernando.gif";"true";"<p>Dispone de <strong>4 habitaciones adaptadas</strong>
Información facilitada por el hotel.</p>
<p><strong> Accesibilidad Física</strong></p>
<div><img alt=""Icono Accesible"" src=""http://www.zaragoza.es/cont/paginas/sinbarreras/img/icono_silla1.jpg""/> Accesible</div>
<ul>
    <li><strong>Aparcamiento</strong>:
    <ul>
        <li>Exterior: 2 plazas (falta la señalización vertical)</li>
        <li>Interior: 2 plazas con acceso directo al hotel con ascensor adaptado. (falta la señalización , en obras)</li>
    </ul>
    </li>
    <li><strong>Acceso</strong>: A cota cero.</li>
    <li><strong>Entrada</strong>: Puertas automáticas. Espacios amplios para la movilidad.</li>
    <li><strong>Movilidad en el interior del edificio</strong>:
    <ul>
        <li><strong>Recepción</strong>: Servicio personalizado, mostrador no adaptado (en altura). Hall con zona de descanso equipada con  sillones y mesas.</li>
        <li> <strong>Cafetería</strong>: Servicio adaptado. Espacio con mesas que disponen de soporte central. Mostrador no adaptado en altura. </li>
        <li> <strong>Restaurante</strong>: Adaptado, las mesas dispone de un soporte central que no dificultan su utilización </li>
        <li> <strong>Aseos</strong>: Sí, en zonas comunes (ambos sexos). </li>
        <li><strong>Ascensor</strong>: Adaptado, con barras, espejo, bien iluminado y botonera braille. (No dispone de sistema sonoro) </li>
        <li> <strong>Pasillos</strong>: Amplios y libres de obstáculos con pavimento antideslizante.</li>
        <li><strong>Habitaciones</strong>: 4. Disponen de espacio suficiente para circular entre los diferentes elementos de mobiliario. Espacios libres de paso con más de 80 cm. permitiendo el giro de 150 cm. de diámetro. Armarios pendientes de adaptar. (Cajones y baldas entre 50 y 120 cm.). Las habitaciones tienen un servicio de apartahotel, con servicio de cocina, con vitrocerámica, frigorífico. (Sin adaptar). Regulador de temperatura no adaptado en altura (control en recepción). Pavimento de moqueta.</li>
        <li><strong> Cuarto de baño</strong>: <strong>Puerta </strong>de paso adaptada en anchura, espacio libre para realizar el giro de 150 cm. <strong>Inodoro </strong>sin alza elevadora (0,45/ 0,50 cm.), con espacio para la transferencia lateral.  El <strong>lavabo </strong>no ofrece dificultad, espejo  y buena iluminación. <strong>Ducha </strong>a cota cero (acceso con  bordillo de unos 3 cm). Falta silla  auxiliar en la ducha, con espacio suficiente.</li>
        <li><strong> Planta -1: </strong> Se encuentra el servicio de <em>Spa-wellness</em>. Dispone de baño adaptado, pero algunas salas tienen escalones para acceder (No adaptadas).</li>
    </ul>
    </li>
</ul>
<p><em>Información facilitada por Disminuidos Físicos de Aragón</em></p>";"Apertura en el 2008.";"Hotel 4 estrellas";"176";"358";"667449.39 4611942.49";2021-04-22T07:49:38Z;"https://www.zaragoza.es/sede/portal/turismo/servicio/alojamiento/12744";"https://www.zaragoza.es/sede/portal/turismo/servicio/alojamiento/12744";"http://www.zaragoza.es/api/recurso/turismo/alojamiento/12744"
"https://www.zaragoza.es/sede/portal/turismo/servicio/alojamiento/31453";"DIAGONAL PLAZA";"Avenida Diagonal, 30 (Plaza) <strong><abbr title=""Teléfono"">Tel.:</abbr></strong> 876 11 10 00";"Avenida Diagonal, 30 (Plaza)";"50197";"ZARAGOZA";"876 11 10 00";"";"";"";"";"";"";"";"";"Hotel 4 estrellas";"176";"348";"";2021-04-22T07:49:38Z;"https://www.zaragoza.es/sede/portal/turismo/servicio/alojamiento/31453";"https://www.zaragoza.es/sede/portal/turismo/servicio/alojamiento/31453";"http://www.zaragoza.es/api/recurso/turismo/alojamiento/31453"
"https://www.zaragoza.es/sede/portal/turismo/servicio/alojamiento/14576";"HOTEL ZENTRAL AVE ZARAGOZA";"Avda. Francia, s/n <strong><abbr title=""Teléfono"">Tel.:</abbr></strong> 976 28 79 50";"Avda. Francia, s/n";"50003";"Zaragoza";"976 28 79 50";"976 28 79 51";"comercial@hotelzentralzaragoza.com";"http://www.hotelzentralzaragoza.com";"//www.zaragoza.es/cont/paginas/turismo/oficina/rsc/img/empresa/I_HotelZentralAVE.png";"//www.zaragoza.es/cont/paginas/turismo/oficina/rsc/img/empresa/L_HotelZentralAVE.jpg";"true";"<p><strong>Accesibilidad Física: </strong></p><div><img alt=""Icono de accesible"" src=""/cont/paginas/sinbarreras/img/icono_silla1.jpg""/> Accesible</div><ul><li><strong>Aparcamiento</strong>: 2 plazas reservadas (falta la señalización vertical). Acceso directo al hotel mediante ascensor adaptado.</li><li><strong> Acceso</strong>:  Entrada con rampa y un poco de pendiente. Doble puertas automáticas. Mostrador no adaptado (altura).</li><li><strong>Movilidad en el interior del edificio</strong><ul><li><strong> Zonas Comunes</strong><ul><li>Espacios amplios: Sí</li><li>Cafetería: Adaptada</li><li> Zona de desayunos: Adaptada.</li><li>Restaurante: Adaptado.</li><li>Salones: Adaptados.</li><li>Aseo Adaptado: Sí, para ambos sexos.</li><li> Ascensor Adaptado: Sí. Con barras.</li><li>Otros: Pavimento de Parquet y alguna alfombra incrustada. Pasillos amplios y libres de obstáculos.</li></ul></li><li><strong>Habitaciones </strong>:<ul><li>Habitaciones Adaptadas: 7. </li><li>Espacios amplios: Sí, no hay dificultad de giro (1.50 cm.). Espacio libre de paso de 80 cm.</li><li>  Armarios: No adaptados. Cajones y baldas (altura 50 y 120 cm.)</li><li>  Aseo Adaptado: Sí. Espacio libre de giro (1,50 cm.). Inodoro a la altura (dificultad en la transferencia lateral). Lavabo sin pedestal y ducha a cota cero.</li></ul></li></ul></li></ul><p><strong>Accesibilidad Sensorial</strong></p><ul><li><strong>Movilidad en el interior del edificio</strong><ul><li><strong> Zonas Comunes</strong><ul><li> Ascensor Adaptado: Sí, botonera  en braille, buena iluminación.</li></ul></li></ul></li></ul>
<p><em>Información facilitada por Disminuidos Físicos de Aragón</em></p>";"Inaugurado en octubre de 2007";"Hotel 4 estrellas";"162";"324";"674344.55 4614495.0";2021-04-22T07:49:38Z;"https://www.zaragoza.es/sede/portal/turismo/servicio/alojamiento/14576";"https://www.zaragoza.es/sede/portal/turismo/servicio/alojamiento/14576";"http://www.zaragoza.es/api/recurso/turismo/alojamiento/14576"
"https://www.zaragoza.es/sede/portal/turismo/servicio/alojamiento/176";"HOTEL GOYA";"C/ Cinco de Marzo,  5 <strong><abbr title=""Teléfono"">Tel.:</abbr></strong> 976 22 93 31";"C/ Cinco de Marzo,  5";"50004";"Zaragoza";"976 22 93 31";"976 23 21 54";"hotelgoya@palafoxhoteles.com";"http://www.palafoxhoteles.com";"//www.zaragoza.es/cont/paginas/turismo/oficina/rsc/img/empresa/029.%20I_Goyaweb.jpg";"//www.zaragoza.es/cont/paginas/turismo/oficina/rsc/img/empresa/028-hotel-goya.gif";"true";"";"En pleno centro de la ciudad. Con 79 habitaciones completamente equipadas. Amplios salones sociales. Salones de reuniones, convenciones y banquetes hasta 300 personas. Garaje para clientes en el mismo edificio.
Habitaciones completamente equipadas, aire acondicionado regulable, antena parabólica, Canal +, minibar, secador de pelo, espejo antivaho, espejo de aumento, escritorio,
158 habitaciones:


Parking propio

The Hotel Goya is in the centre of Zaragoza and has 79 fully-equipped rooms. There are rooms for social functions, meetings and banquets for up to 300 people and there is private parking.
All rooms have individual air-conditioning, satellite TV, Canal +, minibar, hairdryer, anti-misting mirrors, magnifying mirror, a desk and many other facilities";"Hotel 4 estrellas";"158";"79";"676425.91 4613472.09";2021-04-22T07:49:38Z;"https://www.zaragoza.es/sede/portal/turismo/servicio/alojamiento/176";"https://www.zaragoza.es/sede/portal/turismo/servicio/alojamiento/176";"http://www.zaragoza.es/api/recurso/turismo/alojamiento/176"
"https://www.zaragoza.es/sede/portal/turismo/servicio/alojamiento/47";"HOTEL ZENIT DON YO";"C/ Bruil, 4-6 <strong><abbr title=""Teléfono"">Tel.:</abbr></strong> 976 22 67 41";"C/ Bruil, 4-6";"50001";"Zaragoza";"976 22 67 41";"976 21 99 56";"reservasdonyo@zenithoteles.com";"http://donyo.zenithoteles.com/index.php/es";"//www.zaragoza.es/cont/paginas/turismo/oficina/rsc/img/empresa/donyo3.jpg";"//www.zaragoza.es/cont/paginas/turismo/oficina/rsc/img/empresa/039-hotel-zenit.gif";"true";"<p><strong>Accesibilidad Física:</strong></p><ul><li><img src=""/cont/paginas/sinbarreras/img/icono_acomp1.jpg"" alt=""""/>Accesible con Acompañante</li><li><strong>Aparcamiento</strong>: Parking concertado pero no tiene plazas reservadas</li><li><strong>Acceso</strong>: Entrada adaptada con rampa y poca pendiente    </li><li><strong>Movilidad en el interior del edificio:</strong><ul><li><strong>Zonas comunes:</strong><ul><li>Las estancias del hotel, restaurante y cafeteria son accesibles</li><li>Ascensor Adaptado: Sí</li></ul></li><li><strong>Habitaciones:</strong><ul>            <li> Habitaciones Adaptadas: Dispone de 1</li><li>Puertas: Ancho 80 cm</li><li>Espacios Amplios. Sí, no hay dificultad de giro</li><li>Aseos Adaptados: Sí. En la duha hay que superar el bordillo de la mámpara. El wc no tiene alza elevadora y cuenta con barras abatibles a ambos lados. Dificultad en la transferencia lateral al wc  (existencia de bidé). El lavabo está suspendido en la pared. Espejo con suficiente inclinación.            </li></ul></li></ul></li></ul><p><em>Información facilitada por Disminuidos Físicos de Aragón</em></p>";"Zenit Don Yo dispone de ocho salones con todos los medios técnicos y equipamientos necesarios para acoger reuniones de empresa, presentaciones, comidas privadas y banquetes.
Con capacidad para acoger hasta 150 personas, constituyen espacios modernos y versátiles que permiten adaptarse a las diferentes necesidades y reportar siempre los más altos índices de confort y una respuesta de calidad a la medida del cliente.
Para facilitar la celebración de este tipo de eventos, todos los salones están equipados técnicamente con servicios como:
- Flip chart.
- Sistema de megafonía.
- Vídeo.
- Pantalla.
- TV.
- Proyector de transparencias.
- Proyector de diapositivas.
- Retroproyector.


The hotel Zenit Don Yo has eight fully equipped rooms for business meetings, presentations, private lunches and banquets.
With capacity for 150 people, they are modern, versatile areas that may be adapted to the client''''''''''''";"Hotel 4 estrellas";"146";"275";"676343.68 4613128.68";2021-04-22T07:49:38Z;"https://www.zaragoza.es/sede/portal/turismo/servicio/alojamiento/47";"https://www.zaragoza.es/sede/portal/turismo/servicio/alojamiento/47";"http://www.zaragoza.es/api/recurso/turismo/alojamiento/47"
"https://www.zaragoza.es/sede/portal/turismo/servicio/alojamiento/17";"NH COLLECTION GRAN HOTEL DE Zaragoza";"C/ Joaquín Costa, 5 <strong><abbr title=""Teléfono"">Tel.:</abbr></strong> 976 22 19 01";"C/ Joaquín Costa, 5";"50001";"Zaragoza";"976 22 19 01";"976 23 67 13";"nhcollectiongranhotel@nh-hotels.com";"http://https://www.nh-hoteles.es/hotel/nh-collection-gran-hotel-de-zaragoza";"//www.zaragoza.es/cont/paginas/turismo/oficina/rsc/img/empresa/I_NHGranhotel.jpg";"//www.zaragoza.es/cont/paginas/turismo/oficina/rsc/img/empresa/L_NHGranHotelColletion.jpg";"true";"";"<p></p><p>El NH Collection Gran Hotel de Zaragoza, antes NH Gran Hotel, se ubica en un lujoso edificio antiguo en el centro de Zaragoza. Está a un paseo de varios de los mejores museos de la ciudad, incluido el Museo Provincial con sus pinturas de Goya y el Museo Pablo Serrano de escultura abstracta. </p> <p></p><p>Además, al lado del hotel encontrarás numerosas tiendas y restaurantes de categoría.</p> <p></p><p>
	a un paseo de los principales museos y galerías de arte
	Tiendas y restaurantes a pocos pasos
	elegante edificio de los años 20</p> <p></p><p>
Las 133 habitaciones, que se renovaron en diciembre de 2014, son amplias y luminosas, con suelos de madera noble y baños modernos. Las Suites cuentan con más espacio para alojar a familias y nuestras habitaciones individuales son perfectas para quienes viajan solos. La Suite Real también dispone de jacuzzi.</p> <p></p><p>
	habitaciones renovadas recientemente
	WiFi gratis
	tetera y cafetera en todas las habitaciones</p> <p></p><p>
En el restaurante del hotel, La Ontina, se sirven platos típicos españoles de gran calidad y un excelente menú degustación. El hotel cuenta también con gimnasio, así como un gastro-bar recientemente renovado y un vestíbulo abovedado donde puedes relajarte mientras te tomas un café. Aprovecha al máximo tu estancia en Zaragoza gracias a los Guest Relations nuestro equipo de expertos. </p> <p></p><p>
	restaurante de primera clase especializado en cocina española
	bar y lounge renovados
	gimnasio y sauna gratuitos con equipamiento moderno
	Galardonado con los certificados ISO 14001 y 50001 de medio ambiente y energía gracias a su compromiso medioambiental </p> <p></p>";"Hotel 4 estrellas";"133";"249";"676522.76 4613183.22";2021-04-22T07:49:38Z;"https://www.zaragoza.es/sede/portal/turismo/servicio/alojamiento/17";"https://www.zaragoza.es/sede/portal/turismo/servicio/alojamiento/17";"http://www.zaragoza.es/api/recurso/turismo/alojamiento/17"
"https://www.zaragoza.es/sede/portal/turismo/servicio/alojamiento/45";"HOTEL NH CIUDAD DE ZARAGOZA";"Avda. César Augusto, 125 <strong><abbr title=""Teléfono"">Tel.:</abbr></strong> 976 44 21 00";"Avda. César Augusto, 125";"50003";"Zaragoza";"976 44 21 00";"976 44 33 61";"nhciudaddezaragoza@nh-hotels.com";"http://www.nh-hoteles.es/hotel/nh-ciudad-de-zaragoza";"//www.zaragoza.es/cont/paginas/turismo/oficina/rsc/img/empresa/I_NHhoteles.jpg";"//www.zaragoza.es/cont/paginas/turismo/oficina/rsc/img/empresa/L_NH%20Hoteles.jpg";"true";"<div><img src=""/cont/paginas/sinbarreras/img/icono_silla1.jpg"" alt=""Accesible""/> Accesible </div><ul><li><strong>Aparcamiento</strong>: Con plazas reservadas.  Acceso directo al hotel mediante ascensor. </li><li><strong>Acceso</strong>:  A Cota cero. Puerta automática adaptada en anchura </li><li><strong>Movilidad en el interior del edificio:</strong><ul><li><strong>Zonas comunes:</strong><ul><li> Recepción con mostrador adaptado en altura</li><li>Espacios Amplios: Sí</li><li>Ascensor Adaptado: Sí. Con barras. Botonera adaptada en altura y numeración en  braille. Bien iluminado.</li><li>  Acceso al restaurante desde el hotel mediante ascensor. </li><li>Cafetería/Restaurante:  Acceso cota cero planta calle. Mesas adaptadas en altura.     </li><li>Aseo adaptado en planta -1  </li></ul></li><li><strong>Habitaciones:</strong><ul><li> Habitaciones Adaptadas: Dispone de 2.</li><li>Puertas: Adaptadas en anchura.</li><li>Espacios Amplios. Sí, no hay dificultad de giro </li><li>Aseos Adaptados: Sí.  Ducha a cota cero con barras y silla auxiliar. El wc con barras abatibles y espacio para transferencia lateral. Lavabo suspendido y espejo inclinado</li></ul></li></ul></li></ul><p><em>Información facilitada por Disminuidos Físicos de Aragón</em></p>";"Localizado en pleno centro histórico de la ciudad, junto a la Basílica del Pilar y con grandes facilidades de acceso a la autopista A2 (Barcelona-Madrid), al aeropuerto y al recinto ferial.
El  Ciudad de Zaragoza está ubicado en un edificio de construcción moderna.
SERVICIOS: - 124 habitaciones (incluidas 5 Júnior-Suites y 2 Suites). - Teléfono directo. - TV con Canal +, películas de pago, vídeo juegos. - Mini-bar. - Aire acondicionado. - Kit de baño, secador de pelo. - Hilo musical. - Almohadas a la carta. - Desayuno bufé. - Desayuno para madrugadores. - Restaurante. - 3 Salones (de 20 a 50 personas). - Bar-Cafetería. - Servicio de Lavandería. - Parking. - Servicio de Guardarropa.
LA MEJOR OPCIÓN PARA SUS ESTANCIAS DE NEGOCIOS 
EN ZARAGOZA
Más de 230 hoteles en 19 países.

<ul><li>Parking propio.</li><li>Admiten animales de compañía previa consulta.</li></ul>



The Ciudad de Zaragoza hotel is a modern construction, situated in the historic centre of the city, next to the Basílica del Pilar, just a few minutes from the A2 motorway (Barcelona-Madrid), the airport and the trade fair and exhibition complex.

SERVICES: - 124 rooms (including 5 Junior-Suites and 2 Suites). ¿ Direct dialling telephone - TV with Canal +, pay per view films and video games - Mini-bar. ¿ Air conditioning ¿ Bathroom kit - Hairdryer ¿ Piped music ¿ Pillow menu ¿ Buffet breakfast ¿ Early risers¿ breakfast - Restaurant - 3 function rooms (20 - 50 people) - Bar-Cafeteria ¿ Laundry service - Parking ¿ Cloakroom service
THE BEST OPTION FOR BUSINESS STOPOVERS IN ZARAGOZA
More than 230 hotels in 19 countries";"Hotel 4 estrellas";"124";"194";"676459.72 4614138.91";2021-04-22T07:49:38Z;"https://www.zaragoza.es/sede/portal/turismo/servicio/alojamiento/45";"https://www.zaragoza.es/sede/portal/turismo/servicio/alojamiento/45";"http://www.zaragoza.es/api/recurso/turismo/alojamiento/45"
"https://www.zaragoza.es/sede/portal/turismo/servicio/alojamiento/12733";"HOTEL ALFONSO";"C/ Coso, 17-19 <strong><abbr title=""Teléfono"">Tel.:</abbr></strong> 876 541 118";"C/ Coso, 17-19";"50003";"Zaragoza";"876 541 118";"876 54 11 19";"hotelalfonso@palafoxhoteles.com";"http://www.palafoxhoteles.com";"//www.zaragoza.es/cont/paginas/turismo/oficina/rsc/img/empresa/025.%20I_Hotel%20Alfonso.jpg";"//www.zaragoza.es/cont/paginas/turismo/oficina/rsc/img/empresa/033-hotel-alfonso.gif";"true";"";"Excelentemente ubicado en el centro histórico y económico de la ciudad, se erige como un nuevo cuatro estrellas, moderno y acogedor. Cuenta con 103 habitaciones y 17 suites. El interiorismo ha sido realizado por Pascua Ortega. Cuenta con gimnasio y piscina climatizada. En la azotea del hotel, con unas vistas insuperables del casco histórico de la ciudad y la Basílica del Pilar, el cliente puede disfrutar de solarium y piscina exterior.";"Hotel 4 estrellas";"120";"233";"676450.65 4613650.8";2021-04-22T07:49:38Z;"https://www.zaragoza.es/sede/portal/turismo/servicio/alojamiento/12733";"https://www.zaragoza.es/sede/portal/turismo/servicio/alojamiento/12733";"http://www.zaragoza.es/api/recurso/turismo/alojamiento/12733"
"https://www.zaragoza.es/sede/portal/turismo/servicio/alojamiento/31608";"REAL CIUDAD DE ZARAGOZA";"Carretera Huesca, km 7. Ciudad del transporte, pol 69A, parcela 02. Barrio San Juan de Mozarrifar. <strong><abbr title=""Teléfono"">Tel.:</abbr></strong> 976 45 92 95";"Carretera Huesca, km 7. Ciudad del transporte, pol 69A, parcela 02. Barrio San Juan de Mozarrifar.";"50820";"ZARAGOZA";"976 45 92 95";"";"";"";"";"";"";"";"";"Hotel 4 estrellas";"120";"180";"";2021-05-06T11:35:16Z;"https://www.zaragoza.es/sede/portal/turismo/servicio/alojamiento/31608";"https://www.zaragoza.es/sede/portal/turismo/servicio/alojamiento/31608";"http://www.zaragoza.es/api/recurso/turismo/alojamiento/31608"
"https://www.zaragoza.es/sede/portal/turismo/servicio/alojamiento/13307";"HOTEL SPA REAL CIUDAD DE ZARAGOZA";"Polígono Ciudad del Transporte - Ctra. de Huesca, Km 7 <strong><abbr title=""Teléfono"">Tel.:</abbr></strong> 976 45 92 95";"Polígono Ciudad del Transporte - Ctra. de Huesca, Km 7";"50820";"San Juan de Mozarrifar";"976 45 92 95";"976 45 92 96";"comercial@eizasahoteles.com";"http://www.hotelrcz.com";"//www.zaragoza.es/cont/paginas/turismo/oficina/rsc/img/empresa/realciudadzaragoza.jpg";"//www.zaragoza.es/cont/paginas/turismo/oficina/rsc/img/empresa/032-hotel-real.gif";"true";"<p>Disponen de parking propio
Accesibilidad: 6 habitaciones adaptadas para minúsvalidos. información facilitada por el hotel</p><p><strong>Accesibilidad Física: </strong></p><div><img alt=""Accesible"" src=""/cont/paginas/sinbarreras/img/icono_silla1.jpg""/> Accesible</div><ul><li><strong>Aparcamiento</strong>: Sí,  falta la señalización vertical). Acceso directo al hotel con ascensor adaptado.      </li><li><strong>Acceso</strong>: Entrada Adaptada, con rampa y pendiente.    Dos accesos uno con puerta giratoria, y el otro puertas automáticas.  Servicio personalizado, mostrador  adaptado (en altura). Zona de descanso.     </li><li><strong>Movilidad en el interior del edificio:</strong><ul><li><strong>Zonas comunes:</strong><ul><li>Restaurante: Adaptado</li><li>Cafetería: Adaptada. Espacio con mesas en soporte central. Mostrador no adaptado</li><li>Ascensor Adaptado: Sí, con barras, espejo,iluminado, botonera adaptada y con sistema braille               </li><li>Aseos Adaptados. Siacute;, en zonas comunes. Falta barra de apoyo fija</li><li>Zonas de paso: Amplias. Pavimento de moqueta</li></ul></li><li><strong>Habitaciones:</strong><ul><li>Habitaciones Adaptadas: Dispone de 6</li><li>Habitaciones Semiadaptadas: 50, dirigidas a movilidad menos reducida. Espacios amplios y aseos semiadaptados</li><li>Puertas: Ancho 80 cm</li><li>Espacios Amplios. Sí, no hay dificultad de giro (1,50 cm.)</li><li>Armarios: Pendientes de adaptar (cajones y baldas entre 50 y 120 cm.)</li><li>Aseos Adaptados: Sí. Ducha a cota cero con silla auxiliar. El lavabo está suspendido en la pared. Espejo con suficiente inclinación. Espacio para realizar la transferencia lateral (falta barra de apoyo fija)</li></ul></li>
    </ul>
    </li>
</ul>
<p><em>Información facilitada por Disminuidos Físicos de Aragón</em></p>";"";"Hotel 4 estrellas";"120";"180";"678848.7 4621249.33";2021-09-15T12:11:09Z;"https://www.zaragoza.es/sede/portal/turismo/servicio/alojamiento/13307";"https://www.zaragoza.es/sede/portal/turismo/servicio/alojamiento/13307";"http://www.zaragoza.es/api/recurso/turismo/alojamiento/13307"
"https://www.zaragoza.es/sede/portal/turismo/servicio/alojamiento/75";"HOTEL SILKEN REINO DE ARAGÓN";"C/ Coso, 80 <strong><abbr title=""Teléfono"">Tel.:</abbr></strong> 976 46 82 00";"C/ Coso, 80";"50001";"Zaragoza";"976 46 82 00";"976 46 82 11";"convenciones.reinoaragon@hoteles-silken.com";"http://www.hotelreinodearagon.com";"//www.zaragoza.es/cont/paginas/turismo/oficina/rsc/img/empresa/silkenreino2.jpg";"//www.zaragoza.es/cont/paginas/turismo/oficina/rsc/img/empresa/035-hoteles-silken.gif";"true";"Dispone de tres habitaciones adaptadas para minusválidos. (Información faciitada por el propio hotel)";"El Hotel Reino de Aragón renovado en el año 2009, destaca por su céntrica ubicación, en la misma calle Coso, junto a la Plaza de España y el paseo de la Independencia, muy cerca de la Basílica del Pilar y frente al Teatro Principal, con fácil acceso al recinto ferial y al aeropuerto. Una situación idónea, tanto para un viaje turístico como un viaje de negocios.
Cuenta con 117 habitaciones amplias y funcionales, elegantemente amuebladas. Dispone de planta ejecutiva, planta para no fumadores, una bonita terraza interior y garaje propio. 
Sus amplios y elegantes salones, situados en la planta noble del Hotel, pueden unirse para dar cabida hasta 400 personas en el gran salón Aragón. Están dotados de luz natural y de todo el equipamiento tecnológico y audiovisual necesarios para reuniones de trabajo, convenciones y actos sociales.
Asimismo, el hotel dispone de suites que pueden habilitarse como despachos de trabajo. Cada uno de sus salones (Zaragoza, Teruel Huesca y Jaca) resulta idóneo para todo tipo de celebraciones y banquetes.

Parking concertado.




The Hotel Reino de Aragón is found on the central Coso street, next to the Plaza de España and the  Paseo de la Independencia, near the Teatro Principal, with easy access to the Trade fair complex and the airport. It is the ideal base for both a tourist visit and a business trip.
There are 117 large, elegantly furnished, functional rooms, an executive floor, a non-smokers floor, an attractive interior terrace and private parking. 
On the Noble floor there are function rooms and the Salón Aragón holds up to 400 people. There is an abundance of natural light and the rooms are equipped with all the technological and audio-visual systems necessary for work meetings, conferences or social events.
There are also suites that may be used as work offices. All the function rooms (Zaragoza, Teruel, Huesca and Jaca) are ideal venues for meetings, conferences social events or banquets.";"Hotel 4 estrellas";"117";"227";"676742.69 4613448.0";2021-04-22T07:49:38Z;"https://www.zaragoza.es/sede/portal/turismo/servicio/alojamiento/75";"https://www.zaragoza.es/sede/portal/turismo/servicio/alojamiento/75";"http://www.zaragoza.es/api/recurso/turismo/alojamiento/75"
"https://www.zaragoza.es/sede/portal/turismo/servicio/alojamiento/246";"HOTEL YIT CIUDAD DE ZARAGOZA";"Cmno. de los Molinos, 42 <strong><abbr title=""Teléfono"">Tel.:</abbr></strong> 976 10 67 00";"Cmno. de los Molinos, 42";"50015";"ZARAGOZA";"976 10 67 00";"976 10 67 01";"ciudaddezaragoza@yithoteles.com";"http://www.hotelciudadzaragoza.com";"//www.zaragoza.es/cont/paginas/turismo/oficina/rsc/img/empresa/holidayinn.jpg";"//www.zaragoza.es/cont/paginas/turismo/oficina/rsc/img/empresa/NEXH%20logo%20PANTONE%20540.fh11.gif";"true";"<div><img src=""/cont/paginas/sinbarreras/img/icono_silla1.jpg""  alt=""Accesible""/> Accesible</div><ul><li>Dispone de 6 habitaciones adaptadas para personas con movilidad reducida</li></ul><p><em>Información facilitada por el hotel</em></p> <div><img src=""/cont/paginas/sinbarreras/img/icono_silla1.jpg""  alt=""Accesible""/> Accesible</div><ul><li><strong>Aparcamiento</strong>: No tiene plazas reservadas</li><li><strong>Acceso</strong>: Tiene tres entradas, una accesible con puerta automática. La otra tiene escaleras pero hay un tercer acceso con rampa que comunica con el parking y no ofrece dificultad. Mostrador de información adaptado</li><li><strong>Movilidad en el interior del edificio:</strong><ul><li><strong>Zonas comunes:</strong><ul><li>Espacios Amplios: Sí</li><li>Ascensor Adaptado: Sí</li><li>Aseos Adaptados: Sí, en planta calle</li><li>Las estancias del hotel, cafetería y restaurante son accesibles</li></ul></li><li><strong>Habitaciones:</strong><ul><li> Habitaciones Adaptadas: Dispone de 6</li><li>Puertas: Ancho 80 cm</li><li>Espacios Amplios. Sí, no hay dificultad de giro</li><li>Aseos Adaptados: Sí. Ducha a cota cero equipada con banqueta. El wc tiene alza elevadora y cuenta con barra fija y abatible. El lavabo está suspendido en la pared. Espejo con suficiente inclinación</li></ul></li></ul></li></ul><ul><li><strong>Accesibilidad Sensorial</strong>. Dotado de servicio de comunicación para invidentes</li></ul><p><em>Información facilitada por Disminuidos Físicos de Aragón</em></p>";"El Hotel Express by Holiday Inn Zaragoza situado al Norte de Zaragoza, en uno de los más importantes distritos empresariales de la ciudad, fácil acceso desde la AP-2.
Dispone de garaje, bar cafetería, salones de reunión, centro de negocios, cajas de seguridad, accesible para personas discapacitadas, se admiten animales pequeños.
Todas las habitaciones están dotadas de controlador de aire acondicionado individualizado, una gran mesa de trabajo con lámpara. conexión de alta velocidad a Internet, servicio de café e infusiones gratuito, teléfono directo, televisión interactiva con canales vía satélite, radio, películas de pago y secador. 
116 Habitaciones dobles.




The Hotel Express by Holiday Inn Zaragoza is found to the north of Zaragoza, in one of the most important business districts of the city with easy access to the AP-2 motorway.
The hotel has private parking, a bar-cafeteria, meeting rooms, business centre, safe deposit box, disability access and small animals are admitted.
All rooms have individually controlled air conditioning, a large work desk with lamp, broadband internet connection, free coffee and tea, direct dialling telephone, interactive TV with satellite channels, radio, pay per view films and hairdryer.
116 double rooms";"Hotel 3 estrellas";"114";"220";"677542.94 4616315.4";2021-04-22T07:49:38Z;"https://www.zaragoza.es/sede/portal/turismo/servicio/alojamiento/246";"https://www.zaragoza.es/sede/portal/turismo/servicio/alojamiento/246";"http://www.zaragoza.es/api/recurso/turismo/alojamiento/246"
"https://www.zaragoza.es/sede/portal/turismo/servicio/alojamiento/13241";"HOTEL COGULLADA";"C/ Alberto Einstein, 3 <strong><abbr title=""Teléfono"">Tel.:</abbr></strong> 976 47 02 50";"C/ Alberto Einstein, 3";"50014";"Zaragoza";"976 47 02 50";"976 47 24 19";"reservas@hotelcogullada.com";"http://www.hotelcogullada.com";"";"";"true";"";"Parking propio y aparcamiento para camiones y trailer.";"Hotel 1 estrella";"108";"139";"678094.12 4615620.66";2021-04-22T07:49:38Z;"https://www.zaragoza.es/sede/portal/turismo/servicio/alojamiento/13241";"https://www.zaragoza.es/sede/portal/turismo/servicio/alojamiento/13241";"http://www.zaragoza.es/api/recurso/turismo/alojamiento/13241"
"https://www.zaragoza.es/sede/portal/turismo/servicio/alojamiento/27919";"HOSTAL RESIDENCIA UNIVERSITARIA GOYA";"Plaza la Poesía, 3. <strong><abbr title=""Teléfono"">Tel.:</abbr></strong> 976 50 66 36";"Plaza la Poesía, 3.";"50018";"Zaragoza";"976 50 66 36";"";"rgoya@reyardid.org";"http://www.residenciauniversitariagoya.es";"";"";"";"";"";"Hostal";"102";"114";"";2021-04-22T07:49:38Z;"https://www.zaragoza.es/sede/portal/turismo/servicio/alojamiento/27919";"https://www.zaragoza.es/sede/portal/turismo/servicio/alojamiento/27919";"http://www.zaragoza.es/api/recurso/turismo/alojamiento/27919"
"https://www.zaragoza.es/sede/portal/turismo/servicio/alojamiento/85";"INNSIDE BY MELIÁ ZARAGOZA";"Avda. César Augusto, 13 <strong><abbr title=""Teléfono"">Tel.:</abbr></strong> 976 43 01 00";"Avda. César Augusto, 13";"50004";"Zaragoza";"976 43 01 00";"976 44 57 88";"melia.zaragoza@melia.com";"http://www.melia.com";"//www.zaragoza.es/cont/paginas/turismo/oficina/rsc/img/empresa/I_Innside.jpg";"//www.zaragoza.es/cont/paginas/turismo/oficina/rsc/img/empresa/L_Innside.png";"true";"<div><img alt=""Accesible con Acompañante"" src=""/cont/paginas/sinbarreras/img/icono_acomp1.jpg""/>Accesible con Acompañante</div><ul><li><strong>Aparcamiento</strong>:Plazas reservadas en el parking de Plaza Salamero.</li><li><strong>Acceso</strong>: Con rampa, accesible con ayuda del personal del hotel.</li><li><strong>Movilidad en el interior del edificio:</strong><ul><li><strong>Zonas comunes:</strong><ul><li>Recepción no adaptada en altura </li><li>Espacios Amplios: Sí</li><li>Ascensor Adaptado:Sí. Marcadores visuales en altura.</li><li>Cafetería con escaleras en el acceso</li><li>Aseos adaptados planta -1, accesible con ascensor</li><li>Salones conferencias con rampa accesible con ayuda planta -1 accesible con ascensor</li></ul></li><li><strong>Habitaciones:</strong><ul><li> Habitaciones Adaptadas: Dispone de 5. 4 dobles y una de matrimonio.</li><li>Puertas: Adaptadas en anchura.</li><li>Armarios: Adaptados</li><li>Espacios Amplios. Sí, no hay dificultad de giro </li><li>Aseos Adaptados: Sí. Ducha a cota cero con silla regulable en altura y estabilizado con ventosas. El wc adaptado con barras para la transferencia lateral. El lavabo está suspendido en la pared. Espejo con suficiente inclinación</li></ul></li></ul></li></ul><p><em>Información facilitada por Disminuidos Físicos de Aragón</em></p>";"Experiencia y calidad de servicio en un 4 estrellas en el corazón de la ciudad, en la propia zona comercial y de negocios de Zaragoza. 
Goza de buenos acceso desde las principales vías y hacia la estación de tren y autobuses, así como al aeropuerto que se sitúa a 12 Km. Dispone de 102 habitaciones y 4 salas de reunión, exquisito buffet de desayunos con show-cooking en el restaurante Lateral, con opciones a la carta el resto del día en un ambiente moderno, gimnasio y el nuevo Rooftop con piscina.
Déjese guiar por nuestro equipo de profesionales para alcanzar el éxito para su empresa.
Experience and quality of service in a 4-star hotel in the heart of the city, in the commercial and business area of Zaragoza.
It has good access from the main roads and to the train and bus station, as well as the airport that is 12 km away. It has 102 rooms and 4 meeting rooms, exquisite breakfast buffet with show-cooking in the Lateral restaurant , with a la carte options the rest of the day in a modern environment, gym and the new Rooftop with pool.
Let yourself be guided by our team of professionals to achieve success for your company.";"Hotel 4 estrellas";"102";"204";"676150.15 4613467.21";2021-04-22T07:49:38Z;"https://www.zaragoza.es/sede/portal/turismo/servicio/alojamiento/85";"https://www.zaragoza.es/sede/portal/turismo/servicio/alojamiento/85";"http://www.zaragoza.es/api/recurso/turismo/alojamiento/85"
"https://www.zaragoza.es/sede/portal/turismo/servicio/alojamiento/28365";"HOSTAL IBIS BUDGET";"Avda de La Jota, 2 <strong><abbr title=""Teléfono"">Tel.:</abbr></strong> 976 97 90 28";"Avda de La Jota, 2";"50014";"Zaragoza";"976 97 90 28";"";"h3317-gm@accor.com";"http://www.ibis.com";"";"";"";"";"Ducha y aseo en las habitaciones.";"Hostal";"95";"188";"";2021-05-06T11:30:01Z;"https://www.zaragoza.es/sede/portal/turismo/servicio/alojamiento/28365";"https://www.zaragoza.es/sede/portal/turismo/servicio/alojamiento/28365";"http://www.zaragoza.es/api/recurso/turismo/alojamiento/28365"
"https://www.zaragoza.es/sede/portal/turismo/servicio/alojamiento/295";"HOTEL VINCCI ZARAGOZA ZENTRO";"C/ Coso, 86 <strong><abbr title=""Teléfono"">Tel.:</abbr></strong> 976 703 300";"C/ Coso, 86";"50001";"Zaragoza";"976 703 300";"976 730 301";"reservas.zentro@vinccihoteles.com";"http://www.vinccihoteles.com/es/Hoteles/Espana/Zaragoza/Vincci-Zaragoza-Zentro";"//www.zaragoza.es/cont/paginas/turismo/oficina/rsc/img/empresa/I_HotelVincci.jpg";"//www.zaragoza.es/cont/paginas/turismo/oficina/rsc/img/empresa/L_Vinci.jpg";"true";"<p><strong>Accesibilidad Física</strong></p><div><img src=""/cont/paginas/sinbarreras/img/icono_silla1.jpg"" alt=""Icono de Accesible""/> Accesible</div><ul><li><strong>Aparcamiento</strong>: Dispone de parking en el mismo edificio</li><li><strong> Acceso</strong>: Entrada adaptada. Puertas dobles y automáticas, alfombra incrustada en el pavimento. Mostrador adaptado</li><li><strong>Movilidad en el interior del edificio</strong><ul><li><strong>Zonas Comunes</strong><ul><li>Espacios amplios: Sí</li><li>Cafetería: Adaptada</li><li> Zona de desayunos: Adaptada.</li><li>Aseo: Sí. En planta calle . Falta la señalización universal de baño adaptado, acceso con puerta corredera, la iluminación automática por medio de sensores, inodoro adaptado en altura, con espacio para la transferencia lateral, barra móvil y falta la barra fija, como punto de apoyo. Lavabo sin pedestal, grifo con apertura de palanca, espejo inclinado.</li><li> Ascensor: Sí, barras laterales, y botonera adaptada en altura.</li><li> Pasillos: Amplios y libres de obstáculos, pavimento antideslizante</li></ul></li><li><strong>Habitaciones </strong>:<ul><li>Habitaciones Adaptadas: 4.</li><li>Espacios amplios: Sí, no hay dificultad de giro (1.50 cm.) </li><li>Armarios: Dotados de puertas correderas. Perchas sin adaptar. Cajones y baldas (altura 50 y 120 cm.)</li><li>  Aseo Adaptado: Sí. Puerta corredera, espacio libre para realizar giros de 150 cm., el inodoro adaptado en altura, tiene espacio para la transferencia lateral, El lavabo sin pedestal, espejo inclinado y la ducha a cota cero con silla auxiliar metálica.</li><li> Otros: Pavimento de la habitación es de moqueta, mesillas adaptadas en altura y timbres.</li></ul></li></ul></li></ul><p><strong>Accesibilidad Sensorial</strong></p><ul><li><strong>Movilidad en el interior del edificio</strong><ul><li><strong> Zonas Comunes</strong><ul><li>  Aseos: Iluminación automática por medio de sensores.</li><li>  Ascensor Adaptado: Sí, botonera  en braille y dispositivo sonoro.</li></ul></li></ul></li></ul>";"<p>En el corazón de la ciudad, en un lugar de gran tradición histórica en el que se conservan restos de la época romana y del importante Palacio renacentista que fue destruido durante la guerra de los sitios, se encuentra esta moderna y vanguardista instalación hotelera. El hotel se concibe como un espacio singular en el que la arquitectura y el interiorismo se integran con el objetivo de alcanzar la máxima belleza y funcionalidad para disfrute del cliente. El edificio conserva la fachada modernista de principios del siglo XX que envuelve un espectacular espacio definido alrededor de un gran atrio y jardín vertical donde se ubican los ascensores panorámicos. Sus 92 habitaciones disponen de un espacio lleno de detalles con un completo equipamiento, iluminación y mobiliario diseñados para hacer más acogedora e intimista su visita a nuestra ciudad.  En su planta baja, además de todo lo necesario para darle un completo servicio, dispone de una cafetería integrada en el atrio y de cinco salones modulares que pueden llegar a albergar, en todo tipo de eventos, hasta 650 personas. Garaje en el propio edificio.</p>";"Hotel 4 estrellas";"93";"157";"676796.66 4613426.21";2021-04-22T07:49:38Z;"https://www.zaragoza.es/sede/portal/turismo/servicio/alojamiento/295";"https://www.zaragoza.es/sede/portal/turismo/servicio/alojamiento/295";"http://www.zaragoza.es/api/recurso/turismo/alojamiento/295"
"https://www.zaragoza.es/sede/portal/turismo/servicio/alojamiento/202";"HOTEL ZARAGOZA ROYAL";"C/ Arzobispo Domenech, 4 <strong><abbr title=""Teléfono"">Tel.:</abbr></strong> 976 21 46 00";"C/ Arzobispo Domenech, 4";"50006";"Zaragoza";"976 21 46 00";"976 22 03 59";"recepción.royal@aa-hoteles.com";"http://www.aa-hoteles.com/hoteles/landing-hotel-zaragoza-royal/";"";"";"true";"";"El Hotel HUSA Zaragoza Royal está situado en el centro de la ciudad a sólo 10 minutos del aeropuerto, dispone de un espacioso garaje con 77 plazas. El Hotel ofrece a sus clientes un bar-cafetería muy acogedor, un restaurante con excelente cocina regional e internacional y espaciosas salas donde celebrar banquetes conferencias y reuniones.
Dispone de 92 habitaciones (84 doble y 8 individuales) con baño completo, aire acondicionado, teléfono directo, TV con antena parabólica, canal plus, mini-bar, caja de seguridad, secador de pelo.

<ul><li>Parking Propio.</li></ul>


The Hotel HUSA Zaragoza Royal is situated in the city centre, ten minutes from the airport. It has private parking for 77 cars. The Hotel has a comfortable bar-cafeteria, an excellent restaurant serving regional and international cuisine and spacious function rooms for banquets, conferences and meetings.
There are 92 rooms (84 double and 8 single) with en suite bathroom, air conditioning, direct dialling telephone, satellite TV, Canal +, mini-bar, safe deposit box and hair dryer.";"Hotel 3 estrellas";"92";"168";"675998.54 4612781.6";2021-04-22T07:49:38Z;"https://www.zaragoza.es/sede/portal/turismo/servicio/alojamiento/202";"https://www.zaragoza.es/sede/portal/turismo/servicio/alojamiento/202";"http://www.zaragoza.es/api/recurso/turismo/alojamiento/202"
"https://www.zaragoza.es/sede/portal/turismo/servicio/alojamiento/226";"HOTEL IBIS ZARAGOZA CENTRO";"C/ Sobrarbe, 2 (esq. Avda.Cataluña) <strong><abbr title=""Teléfono"">Tel.:</abbr></strong> 976 20 53 20";"C/ Sobrarbe, 2 (esq. Avda.Cataluña)";"50015";"Zaragoza";"976 20 53 20";"976 39 34 04";"h3317@accor.com";"http://www.ibishotel.com/ibis/fichehotel/es/ibi/3317/fiche_hotel.shtml";"//www.zaragoza.es/cont/paginas/turismo/oficina/rsc/img/empresa/050.-Hotel-IbisAP.jpg";"//www.zaragoza.es/cont/paginas/turismo/oficina/rsc/img/empresa/049-hotel-ibis.gif";"true";"<div><img src=""/cont/paginas/sinbarreras/img/icono_silla1.jpg"" alt=""""/> Accesible</div><ul><li><strong>Aparcamiento</strong>: Sí, tiene plazas reservadas</li><li><strong>Acceso</strong>:Entrada adaptada. Mostrador de información adaptado</li><li><strong>Movilidad en el interior del edificio:</strong><ul><li><strong>Zonas comunes:</strong><ul><li> Las estancias de hotel y cafetería son accesibles</li><li>Espacios Amplios: Sí</li><li>Ascensor Adaptado:Sí</li><li>Dispone de aseo adaptado en el hall de recepción</li></ul></li><li><strong>Habitaciones:</strong><ul><li> Habitaciones Adaptadas: Dispone de 5</li><li>Puertas: Ancho 80 cm</li><li>Espacios Amplios. Sí, no hay dificultad de giro </li><li>Aseos Adaptados: Sí. Ducha a cota cero con banqueta. El wc tiene alza elevadora y cuenta con barra fija y abatible. El lavabo está suspendido en la pared. Espejo con suficiente inclinación</li></ul></li></ul></li></ul><p><em>Información facilitada por Disminuidos Físicos de Aragón</em></p>";"Desayuno Buffet de 6,30 h a 10,30 h, Desayuno madrugador de 4,00 h a 6,30 h y no madrugador de 10,30 h a 12,00 h.
Bar/Cafetería abierto 24 h, Contrato Satisfacción 15 mn, parking subterráneo en el hotel, Telepizza room-service, wifi, Business corner.

Dispone de 90 habitaciones (55 dobles, 30 triples, 5 adaptadas para minusválidos) con baño, aire acondicionado, canal + y canales internacionales, wifi, conexión para PC, habitaciones fumador o no fumador.



Breakfast buffet from 6.30 to10.30, early morning breakfast from 4.00 a.m. to 6.30 and late breakfast from10.30 to 12.00 midday.
Bar/Cafeteria open 24 hours a day, private parking, room-service Telepizza, WiFi, Business area.

90 rooms (55 doubles, 30 three-bed, 5 adapted for disabilities) with en suite bathroom. Air conditioning, Canal + TV and international channels, WiFi, PC connection, rooms for smokers and non-smokers";"Hotel 2 estrellas";"90";"180";"677100.26 4614270.1";2021-04-22T07:49:38Z;"https://www.zaragoza.es/sede/portal/turismo/servicio/alojamiento/226";"https://www.zaragoza.es/sede/portal/turismo/servicio/alojamiento/226";"http://www.zaragoza.es/api/recurso/turismo/alojamiento/226"
"https://www.zaragoza.es/sede/portal/turismo/servicio/alojamiento/46";"ILUNION HOTELS ROMAREDA S.A.";"C/ Asín y Palacios, 11 <strong><abbr title=""Teléfono"">Tel.:</abbr></strong> 976 35 11 00";"C/ Asín y Palacios, 11";"50009";"Zaragoza";"976 35 11 00";"976 35 19 50";"reservasromareda@ilunionhotels.com";"http://www.ilunionromareda.com/";"//www.zaragoza.es/cont/paginas/turismo/oficina/rsc/img/empresa/Romar3.jpg";"//www.zaragoza.es/cont/paginas/turismo/oficina/rsc/img/empresa/L_IlunionsRomareda.jpg";"true";"<p>Hotel certificado en Accesibilidad Universal por AENOR, Norma UNE 170.001-2</p>

<strong>Acceso: </strong>
<ul>
<li>Entrada adaptada con rampa (con pendiente) y elevador salva escaleras. (pendiente de colocar)</li>
<li>Puertas automáticas.</li></ul>
<strong>Movilidad en el interior del edificio: o Zonas comunes</strong>: 
<ul><li>Recepción con mostrador  adaptado en altura y con  bucles magnéticos para la comunicación. (discapacidad auditiva)</li>
<li>Internet point accesible</li>
<li>Espacios Amplios: Sí</li>
<li>Ascensor Adaptado: con señalización en braille y números luminosos, espejo y barras de apoyo, sintetizador de voz.</li>
<li>Puertas de 80 cm.. </li>
<li>Mecanismos manuales adaptados en altura</li>
<li>Cafetería: acceso y mesas adaptadas en altura con servicio personalizado. Menús para celíacos, diabéticos o con algún tipo de alergia alimentaria.</li>
<li>Restaurante: con autoservicio adaptado a personas con movilidad reducida.</li>
<li>Salones, accesos adaptados con rampa y barandillas, para diferentes eventos. </li>
<li>Aseos: adaptado en la planta -1, acceso con ascensor,  puerta corredera, el inodoro dispone de espacio para la transferencia lateral, dos barras de apoyo móviles, lavabo regulable en altura, grifo monomando con palanca, sistema de llamada de auxilio. </li>
</ul>
<strong>Habitaciones:</strong> 
<ul><li>Habitaciones Adaptadas: para personas con movilidad reducida y otras discapacidades sensoriales.</li>
<li>Puertas: Adaptadas en anchura.</li>
<li>Armario-Vestidor: Adaptados en altura, con espacios y perchas de palo. </li>
<li>Teléfono adaptado a discapacidad visual y auditiva</li>
<li>Espacios Amplios. Sí, no hay dificultad de giro.</li>
<li>Cama articulada para facilitar la movilidad.</li>
<li>Señales de aviso luminosas conectadas con el timbre.</li>
<li>Comunicador personalizado permanente con recepción para casos de emergencia (en habitaciones adaptadas). </li>
<li>Despertador adaptado a discapacidades auditivas.</li>
<li>Aseos Adaptados: Sí, ducha adaptada a cota cero con asiento abatible, grifos monomando . El inodoro adaptado con barras de apoyo  abatibles. Lavabo regulable con espejo inclinado y adaptado en altura.</li>
</ul>
<p>Más información en: <a href=""http://www.confortelhoteles.com/es/confortel/hoteles-accesibles-confortel/"">http://www.confortelhoteles.com/es/confortel/hoteles-accesibles-confortel/</a></p>";"El HOTEL CONFORTEL  ROMAREDA**** cuenta con una ubicación excelente, ubicado en una zona tranquila próxima al centro de la ciudad, enfrente del estadio de fútbol de la Romareda y el Auditorio Palacio de Congresos. Además, está a pocos metros de la Universidad de Zaragoza, el Conservatorio Superior de Música de Aragón y los principales hospitales de la ciudad (Miguel Servet, clínico Lozano Biesa, clínica Quirón, clínica Montpellier).

- 90 habitaciones con terraza exterior.
- Wifi gratuito
- Minibar gratuito
- TV.
- Secador
- Amenities
- Servicio de lavandería
- Room service
- Internet point
- Cafetería
- Restaurante
- Salones para banquetes, convenciones, exposiciones, eventos familiares, etc
- Garaje


The HOTEL CONFORTEL ROMAREDA is located in a quiet area near the city centre, just in front of La Romareda football stadium and the Zaragoza Auditórium. It is very closed to Zaragoza University, High Music Conservatoire of Aragon and the main city Hospitals such as Miguel Servet, clínico Lozano Biesa, clínica Quirón and clínica Montpellier.

- 90 rooms with balcony

- Free Wifi

- Free water in minibar

- TV

- Hair dryer

- Amenities

- Laundry service

- Room service

- Internet point

- Cafeteria

- Restaurant

- Meeting rooms

- Parking";"Hotel 4 estrellas";"90";"145";"674718.63 4611906.0";2021-04-22T07:49:38Z;"https://www.zaragoza.es/sede/portal/turismo/servicio/alojamiento/46";"https://www.zaragoza.es/sede/portal/turismo/servicio/alojamiento/46";"http://www.zaragoza.es/api/recurso/turismo/alojamiento/46"
"https://www.zaragoza.es/sede/portal/turismo/servicio/alojamiento/29669";"HOTEL EXE ZARAGOZA WTC";"Avda. María Zambrano, 31 <strong><abbr title=""Teléfono"">Tel.:</abbr></strong> 976 73 83 40";"Avda. María Zambrano, 31";"50018";"Zaragoza";"976 73 83 40";"";"reservas@exezaragozawtc.com";"";"";"";"";"";"";"Hotel 3 estrellas";"88";"131";"";2021-05-06T11:13:51Z;"https://www.zaragoza.es/sede/portal/turismo/servicio/alojamiento/29669";"https://www.zaragoza.es/sede/portal/turismo/servicio/alojamiento/29669";"http://www.zaragoza.es/api/recurso/turismo/alojamiento/29669"
"https://www.zaragoza.es/sede/portal/turismo/servicio/alojamiento/12597";"HOTEL NH ZARAGOZA CENTRO";"C/ Conde Aranda, 48 <strong><abbr title=""Teléfono"">Tel.:</abbr></strong> 976 28 45 00";"C/ Conde Aranda, 48";"50003";"Zaragoza";"976 28 45 00";"976 28 27 17";"nhzaragozacentro@nh-hotels.com";"http://https://www.nh-hoteles.es/hotel/nh-zaragoza-centro";"//www.zaragoza.es/cont/paginas/turismo/oficina/rsc/img/empresa/I_NHhoteles.jpg";"//www.zaragoza.es/cont/paginas/turismo/oficina/rsc/img/empresa/L_NH%20Hoteles.jpg";"true";"";"El Hotel Hesperia Zaragoza***, en pleno centro de la ciudad. Está bien comunicado por su proximidad a las autopistas y a la nueva estación de ferrocarril de Zaragoza.
El viajero podrá disfrutar del confort de sus 86 habitaciones, dotadas de aire acondicionado, TV satélite, Canal +, hilo musical, minibar, caja fuerte, roseta telefónica para conexión de modem, etc.

<ul><li>Parking propio.</li><li>Admiten perros.</li></ul>


The 3-star Hotel Hesperia Zaragoza has a city centre location, direct access to the main roads and the new Intermodal station.
The traveller can enjoy the comfort of its 68 rooms, all with air conditioning, Satellite TV, Canal +, piped music, minibar, safe deposit box and modem telephone connection.";"Hotel 3 estrellas";"86";"163";"676003.91 4613844.95";2021-04-22T07:49:38Z;"https://www.zaragoza.es/sede/portal/turismo/servicio/alojamiento/12597";"https://www.zaragoza.es/sede/portal/turismo/servicio/alojamiento/12597";"http://www.zaragoza.es/api/recurso/turismo/alojamiento/12597"
"https://www.zaragoza.es/sede/portal/turismo/servicio/alojamiento/180";"HOTEL AVENIDA";"Avda. César Augusto, 55 <strong><abbr title=""Teléfono"">Tel.:</abbr></strong> 976 43 93 00";"Avda. César Augusto, 55";"50003";"Zaragoza";"976 43 93 00";"976 43 93 64";"info@hotelavenida-zaragoza.com";"http://www.hotelavenida-zaragoza.com";"";"";"true";"<div><img src=""/cont/paginas/sinbarreras/img/icono_silla1.jpg"" alt=""Accesible""/> Accesible </div><ul><li><strong>Aparcamiento</strong>: Plazas concertadas con el Parking Cesaraugusta </li><li><strong>Acceso</strong>:  A Cota cero. Puerta automática adaptada en anchura </li><li><strong>Movilidad en el interior del edificio:</strong><ul><li><strong>Zonas comunes:</strong><ul><li> Recepción con mostrador adaptado en altura</li><li>Espacios Amplios: Sí</li><li>Espacios Amplios: Pavimento antideslizante</li><li>Ascensor Adaptado: Sí. Con barras. Botonera adaptada en altura y numeración en  braille. Bien iluminado.</li><li>Cafetería/Restaurante: Acceso adaptado. Mesas adaptadas en altura.     </li></ul></li><li><strong>Habitaciones:</strong><ul><li>Habitaciones Adaptadas: Dispone de 1.</li><li>Puertas: Adaptadas en anchura.</li><li>Espacios Amplios. Sí, no hay dificultad de giro </li><li>Aseos Adaptados: Sí.  Ducha a cota cero con barras y silla auxiliar. El wc con barras abatibles y espacio para transferencia lateral. Lavabo suspendido y espejo inclinado</li></ul></li></ul></li></ul><p><em>Información facilitada por Disminuidos Físicos de Aragón</em></p>";"";"Hotel 2 estrellas";"84";"148";"676284.39 4613869.81";2021-11-02T12:08:38Z;"https://www.zaragoza.es/sede/portal/turismo/servicio/alojamiento/180";"https://www.zaragoza.es/sede/portal/turismo/servicio/alojamiento/180";"http://www.zaragoza.es/api/recurso/turismo/alojamiento/180"
"https://www.zaragoza.es/sede/portal/turismo/servicio/alojamiento/12601";"HOTEL EUROPA";"C/ Ciudad de Ponce, 4 <strong><abbr title=""Teléfono"">Tel.:</abbr></strong> 976 79 29 00";"C/ Ciudad de Ponce, 4";"50180";"UTEBO";"976 79 29 00";"976 79 29 01";"recepcion.europa@srhoteles.es";"http://www.srhoteles.es";"//www.zaragoza.es/cont/paginas/turismo/oficina/rsc/img/empresa/europa2.jpg";"//www.zaragoza.es/cont/paginas/turismo/oficina/rsc/img/empresa/027-hotel-europa.gif";"true";"";"El hotel Europa es un hotel de nueva construcción que abrió sus puertas al público en noviembre del 2006. 

Su situación es estratégica ya que está próximo al Aeropuerto de Zaragoza, al Parque empresarial PLAZA y a la Feria de Muestras y a tan sólo 10 km del Centro de la ciudad de Zaragoza y de la Estación Intermodal Delicias.

El hotel Europa es un hotel de cuatro estrellas que tiene 77 habitaciones distribuidas en 5 plantas y que destaca por el diseño vanguardista de sus instalaciones, por la moderna y cuidada decoración de sus habitaciones especialmente diseñadas para el confort y descanso de nuestros huéspedes, por sus amplias salas con luz natural para celebrar cualquier tipo de reunión y por su Restaurante Octava Milla que se ha convertido en todo un referente en la zona por su propuesta gastronómica que combina los productos de la tierra con unos toques de cocina de autor.
Este hotel te sorprenderá porque en un entorno tranquilo y silencioso, alejado del bullicio de la ciudad se encuentra un hotel moderno, innovador y dotado de la última tecnología, ponemos a vuestra disposición wifi gratuito en todas las zonas del hotel, pero no olvidamos el encanto de los pequeños detalles, detalles presentes en todos los rincones del hotel, en las habitaciones, salas, en el gimnasio con su sauna y en el Restaurante Octava Milla.

A todo ello se suma la excelencia en el servicio como espíritu que mueve a nuestro personal y que podrás sentir nada más cruzar la puerta de entrada.
El hotel Europa es, por tanto, una excelente opción para los que viajan tanto por trabajo como por placer.";"Hotel 4 estrellas";"77";"150";"";2021-04-22T07:49:38Z;"https://www.zaragoza.es/sede/portal/turismo/servicio/alojamiento/12601";"https://www.zaragoza.es/sede/portal/turismo/servicio/alojamiento/12601";"http://www.zaragoza.es/api/recurso/turismo/alojamiento/12601"
"https://www.zaragoza.es/sede/portal/turismo/servicio/alojamiento/195";"B&B HOTEL ZARAGOZA LOS ENLACES";"C/ Pilar Miró, 1 <strong><abbr title=""Teléfono"">Tel.:</abbr></strong> 976 48 92 22";"C/ Pilar Miró, 1";"50011";"Zaragoza";"976 48 92 22";"976 48 92 23";"hotel.zaragozaestacion@hotelbb.com";"http://www.hotel-bb.com/es/hotel/zaragoza-los-enlaces-estacion";"//www.zaragoza.es/cont/paginas/turismo/oficina/rsc/img/empresa/aclosenlaces2.jpg";"//www.zaragoza.es/cont/paginas/turismo/oficina/rsc/img/empresa/026-hotel-ac-los-enlaces.gif";"true";"<p><strong> Accesibilidad Física</strong></p>
<ul>
    <li><strong>Aparcamiento</strong>: No dispone de plazas reservadas</li>
    <li><strong>Acceso</strong>: Dispone de elevador salvaescaleras</li>
<li><strong>Movilidad en el interior del edificio</strong>:
    <ul>
        <li>Habitaciones: No adaptadas </li>
    </ul>
    </li>
</ul>
<p><em>Información facilitada por Disminuidos Físicos de Aragón</em></p>";"Hotel contemporáneo, ubicado en la zona industrial y universitaria de Zaragoza. Muy bien comunicado con Madrid y Barcelona por su poximidad a la N-II. Está situado a 10 minutos del centro, 3 de la estación de tren y 10 minutos del aeropuerto.
- Natural AC. - Sala AC. - Prensa gratuita. - Parking. - Fitness centre. - Lavandería. - Servicio de habitaciones. - Habitaciones para no fumadores. - Business facilities. - Conexión a Internet. - TV con más de 20 canales. - 4 almohadas. - Accesorios de baño. - 4 salas de reuniones. - 76 habitaciones.
* Según distribución.



A modern Hotel in the university and business district of Zaragoza, it has excellent communications with Madrid and Barcelona via the nearby N-II motorway. The hotel is 10 minutes from the city centre, 3 minutes from the train station and 10 minutes from the airport.
- Natural AC,  Function room AC,  Free newspapers, Parking, Fitness centre, Laundry,  Room service,  Rooms for non-smokers - Business facilities,   Internet connection - TV with more than 20 channels - 4 pillows,  Bathroom accessories - 4 meeting rooms,  76 rooms";"Hotel 4 estrellas";"76";"140";"673278.09 4613120.27";2021-04-22T07:49:38Z;"https://www.zaragoza.es/sede/portal/turismo/servicio/alojamiento/195";"https://www.zaragoza.es/sede/portal/turismo/servicio/alojamiento/195";"http://www.zaragoza.es/api/recurso/turismo/alojamiento/195"
"https://www.zaragoza.es/sede/portal/turismo/servicio/alojamiento/17095";"HOTEL PARIS CENTRO";"C/ San Pablo, 19 <strong><abbr title=""Teléfono"">Tel.:</abbr></strong> 976 45 63 25";"C/ San Pablo, 19";"50003";"Zaragoza";"976 45 63 25";"976 44 69 98";"reservas@hotelpariscentro.es";"http://www.hotelpariscentro.es";"";"";"true";"";"Hotel Centenario de estilo Renacentista Aragonés desde 1820, totalmente rehabilitado en  Septiembre de 2008, ofrece a sus Clientes la garantía de disfrutar de todo un hotel histórico a los mejores precios. 73 habitaciones dobles y triples, equipadas todas con Aire acondicionado, calefacción individual, radio f.m, TV de plasma de 32 pulgadas panorámica, acceso a Internet gratis. Hotel con  vigilancia de seguridad 24h.";"Hotel 2 estrellas";"72";"132";"676230.25 4613909.5";2021-04-22T07:49:38Z;"https://www.zaragoza.es/sede/portal/turismo/servicio/alojamiento/17095";"https://www.zaragoza.es/sede/portal/turismo/servicio/alojamiento/17095";"http://www.zaragoza.es/api/recurso/turismo/alojamiento/17095"
"https://www.zaragoza.es/sede/portal/turismo/servicio/alojamiento/250";"HOTEL EXE PLAZA DELICIAS";"C/ Los Fayos, 11 <strong><abbr title=""Teléfono"">Tel.:</abbr></strong> 976 34 04 40";"C/ Los Fayos, 11";"50017";"Zaragoza";"976 34 04 40";"976 31 54 22";"reservas@exeplazadelicias.com";"http://www.exehotels.com/exe-plaza-delicias.html";"//www.zaragoza.es/cont/paginas/turismo/oficina/rsc/img/empresa/plazadelicias.jpg";"//www.zaragoza.es/cont/paginas/turismo/oficina/rsc/img/empresa/046-hotel-plaza-delicias.gif";"true";"<strong>Accesibilidad Física:</strong><ul><li><img src=""/cont/paginas/sinbarreras/img/icono_silla1.jpg"" alt=""""/>Accesible</li><li><strong>Aparcamiento</strong>: Sí,tiene una plaza reservada y acceso directo al hotel
</li><li><strong>Acceso</strong>: Entrada adaptada con puerta automática. Mostrador de información adaptado    </li><li><strong>Movilidad en el interior del edificio:</strong><ul><li><strong>Zonas comunes:</strong><ul><li>Las estancias del hotel y restaurante-cafeteria son accesibles</li><li>Ascensor Adaptado: Sí</li></ul></li><li><strong>Habitaciones:</strong><ul><li> Habitaciones Adaptadas: Dispone de 3</li><li>Puertas: Ancho 80 cm</li><li>Espacios Amplios. Sí, no hay dificultad de giro</li><li>Aseos Adaptados: Sí. Ducha a cota cero y cortina que no presenta dificultad. El wc no tiene alza elevadora y cuenta con barra fija y abatible. Dispone de espacio para la transferencia lateral. El lavabo está encastrado en un mueble pero tiene el suficiente espacio para su utilización. Espejo con suficiente inclinación.            </li></ul></li></ul></li></ul><p><em>Información facilitada por Disminuidos Físicos de Aragón</em></p>";"Nuevo hotel inaugurado el 1 de julio de 2004. Situado frente a la Estación Intermodal Delicias, junto al Centro Comercial Augusta y en la principal vía de acceso desde las carreteras de Madrid y Logroño.
Las habitaciones están equipadas con teléfono directo, TV por cable, acceso a Internet, hilo musical, minibar, caja de seguridad, aire acondicionado, secador de pelo y kit de aseo personal. El hotel cuenta además de un excelente servicio de restauración y parking propio.


This new hotel was inaugurated in July 2004 and is to be found opposite the Delicias Intermodal Station, next to the Augusta Commercial Centre, on the main access road to Madrid and Logroño.
All rooms have direct dialling telephone lines, cable TV, internet access, piped music, minibar, safe deposit box, air conditioning, hairdryer and bathroom kit. The hotel also has an excellent restaurant and private parking.";"Hotel 3 estrellas";"70";"120";"673717.61 4613959.02";2021-04-22T07:49:38Z;"https://www.zaragoza.es/sede/portal/turismo/servicio/alojamiento/250";"https://www.zaragoza.es/sede/portal/turismo/servicio/alojamiento/250";"http://www.zaragoza.es/api/recurso/turismo/alojamiento/250"
"https://www.zaragoza.es/sede/portal/turismo/servicio/alojamiento/174";"HOTEL ORIENTE";"C/ Coso, 11-13 <strong><abbr title=""Teléfono"">Tel.:</abbr></strong> 976 20 32 82";"C/ Coso, 11-13";"50003";"Zaragoza";"976 20 32 82";"976 39 93 35";"recepcion.oriente@srhoteles.es";"http://www.hotel-oriente.es";"//www.zaragoza.es/cont/paginas/turismo/oficina/rsc/img/empresa/I_Oriente.jpg";"//www.zaragoza.es/cont/paginas/turismo/oficina/rsc/img/empresa/L_SrHoteles.jpg";"true";"<div><img alt="""" src=""/cont/paginas/sinbarreras/img/icono_acomp1.jpg""/> Accesible con Acompañante</div><ul><li><strong>Aparcamiento</strong>: Parking concertado, no tiene plaza reservadas</li><li><strong>Acceso</strong>: Entrada adaptada. Puertas automáticas</li><li><strong>Movilidad en el interior del edificio:</strong><ul><li><strong>Zonas comunes:</strong><ul><li>Las estancias de hotel, rstaurante y cafetería son accesibles</li><li>Espacios Amplios: Sí</li><li>Ascensor Adaptado:Sí</li></ul></li><li><strong>Habitaciones:</strong><ul><li> Habitaciones Adaptadas: Dispone de 2</li><li>Puertas: Ancho 80 cm</li><li>Espacios Amplios. Sí, no hay dificultad de giro </li><li>Aseos Adaptados: Sí. Ducha a cota cero con banqueta. El wc tiene alza elevadora y cuenta con barra fija y abatible. El lavabo está suspendido en la pared. Espejo con suficiente inclinación</li></ul></li></ul></li></ul><p><em>Información facilitada por Disminuidos Físicos de Aragón</em></p>";"Situado en el centro histórico, nuestro establecimiento se encuentra a 5 minutos andando de la Plaza del Pilar y de los principales monumentos y atracciones turísticas de la ciudad, como la Basílica del Pilar, La Seo y El Palacio de la Aljafería.

También se halla a escasos metros de la Plaza de España y Paseo de Independencia, centro empresarial, donde además encontrarás una diversidad de tiendas en las que podrás realizar tus compras.
El hotel Oriente conserva su fachada original de principios del siglo XX con toques neoclásicos que confiere al establecimiento toda la elegancia y empaque de la época, lo cual contrasta a la perfección con el estilo minimalista y de vanguardia de su Restaurante Umai.

Esta combinación neoclásico-vanguardista de la decoración junto a los servicios que hemos pensado especialmente para ti (Wifi gratuito en todo el hotel, un business corner para que puedas realizar tus consultas ,en las habitaciones aire acondicionado y calefacción regulables, minibar con una selecta variedad de snack y bebidas, TV plana con canales internacionales, caja de seguridad, baño completo ,set de baño, secador de pelo, mesa escritorio y habitaciones adaptadas para minusválidos) convierten al hotel Oriente en un hotel con encanto y perfecto para cualquier escapada a Zaragoza";"Hotel 3 estrellas";"70";"135";"676417.45 4613670.2";2021-04-22T07:49:38Z;"https://www.zaragoza.es/sede/portal/turismo/servicio/alojamiento/174";"https://www.zaragoza.es/sede/portal/turismo/servicio/alojamiento/174";"http://www.zaragoza.es/api/recurso/turismo/alojamiento/174"
"https://www.zaragoza.es/sede/portal/turismo/servicio/alojamiento/153";"HOTEL EL CISNE";"Ctra. de Madrid - Barcelona N-II, Km.309. <strong><abbr title=""Teléfono"">Tel.:</abbr></strong> 976 33 20 00";"Ctra. de Madrid - Barcelona N-II, Km.309.";"50012";"Zaragoza";"976 33 20 00";"976 33 22 05";"info@hotelcisne.com";"http://www.hotelcisne.com";"";"";"true";"<p><strong>Accesibilidad: </strong></p><ul><li>Dispone de 1 habitación adaptada para personas con movilidad reducida. </li></ul><p><em>Información facilitada por Disminuidos Físicos de Aragón</em></p>";"El Hotel El Cisne se ha convertido en un moderno establecimiento, estratégicamente situado a 1 km de la Feria de Muestras y de la Plataforma Logística Plaza, así como a diez minutos del centro comercial de la ciudad, por lo que se encuentra en una localización ideal para sus reuniones, convenciones, 
Disponemos, a parte de amplios salones para reuniones y convenciones, de 68 confortables habitaciones, completamente equipadas.
- Amplios salones con capacidad de 10 a 400 personas. 
- Espaciosa zona de aparcamiento. 
- Acogedor entorno que ofrece amplias posibilidades.


The Hotel El Cisne is a modern establishment just 1 km from the Zaragoza Trade Fair and Exhibition Centre, the PLAZA logistics centre and ten minutes from the commercial centre of the city. It is an excellent location for meetings, conferences and similar events.
As well as the events and function rooms, there are 68 fully equipped bedrooms:

- Function rooms for 10 - 400 people 
- Large car park 
- A welcoming environment with many possibilities";"Hotel 3 estrellas";"69";"118";"665793.55 4610176.36";2021-04-22T07:49:38Z;"https://www.zaragoza.es/sede/portal/turismo/servicio/alojamiento/153";"https://www.zaragoza.es/sede/portal/turismo/servicio/alojamiento/153";"http://www.zaragoza.es/api/recurso/turismo/alojamiento/153"
"https://www.zaragoza.es/sede/portal/turismo/servicio/alojamiento/2124";"HOTEL IBIS STYLES ZARAGOZA RAMIRO I";"C/ Coso, 123 <strong><abbr title=""Teléfono"">Tel.:</abbr></strong> 976 29 82 00";"C/ Coso, 123";"50001";"Zaragoza";"976 29 82 00";"976 39 89 52";"H8521@accor.com";"http://www.ibis.com/es/hotel-8521-ibis-styles-zaragoza-ramiro-i/index.shtml";"";"";"true";"<div><img alt="""" src=""/cont/paginas/sinbarreras/img/icono_acomp1.jpg""/> Accesible con Acompañante</div><ul><li><strong>Aparcamiento</strong>: No dispone</li><li><strong>Acceso</strong>: Entrada adaptada. Puertas automáticas</li><li><strong>Movilidad en el interior del edificio:</strong><ul><li><strong>Zonas comunes:</strong><ul><li> Las estancias de hotel, restaurante y cafetería son accesibles</li><li>Espacios Amplios: Sí</li><li>Ascensor Adaptado:Sí</li></ul></li><li><strong>Habitaciones:</strong><ul><li> Habitaciones Adaptadas: Dispone de 2</li><li>Puertas: Ancho 80 cm</li><li>Espacios Amplios. Sí, no hay dificultad de giro </li><li>Aseos Adaptados: Sí. Ducha a cota cero con banqueta. El wc tiene alza elevadora y cuenta con barra fija y abatible. El lavabo está suspendido en la pared. Espejo con suficiente inclinación</li></ul></li></ul></li></ul><p><em>Información facilitada por Disminuidos Físicos de Aragón</em></p>";"69 habitaciones, renovadas en el 2002, con conexión a ordenador, tv interactiva, vía satélite, baño completo, secador de pelo, antena parabólica, minibar, servicio de lavandería y de habitaciones, aire acondicionado, calefacción, teléfono. Entre sus instalaciones se encuentran salones de convenciones, cafetería y garaje en el propio edificio. Establecimiento preparado para minusválidos. Admite animales";"Hotel 3 estrellas";"69";"131";"677093.0 4613461.71";2021-04-22T07:49:38Z;"https://www.zaragoza.es/sede/portal/turismo/servicio/alojamiento/2124";"https://www.zaragoza.es/sede/portal/turismo/servicio/alojamiento/2124";"http://www.zaragoza.es/api/recurso/turismo/alojamiento/2124"
"https://www.zaragoza.es/sede/portal/turismo/servicio/alojamiento/189";"HOTEL TIBUR";"Pza. de la Seo, 2 y 3 <strong><abbr title=""Teléfono"">Tel.:</abbr></strong> 976 20 20 00";"Pza. de la Seo, 2 y 3";"50001";"Zaragoza";"976 20 20 00";"";"reservas@hoteltibur.com";"http://www.hoteltibur.com";"";"";"true";"";"Parking concertado";"Hotel 3 estrellas";"66";"125";"676923.44 4613872.0";2021-04-22T07:49:38Z;"https://www.zaragoza.es/sede/portal/turismo/servicio/alojamiento/189";"https://www.zaragoza.es/sede/portal/turismo/servicio/alojamiento/189";"http://www.zaragoza.es/api/recurso/turismo/alojamiento/189"
"https://www.zaragoza.es/sede/portal/turismo/servicio/alojamiento/78";"HOTEL DON JAIME 54";"C/ Don Jaime I, 54-56 <strong><abbr title=""Teléfono"">Tel.:</abbr></strong> 976 29 43 22";"C/ Don Jaime I, 54-56";"50001";"Zaragoza";"976 29 43 22";"976 203 031";"info@hoteldonjaime54.es";"http://www.hoteldonjaime54.es";"";"";"true";"";"APERTURA SEPTIEMBRE 2015

Hotel situado junto a la Basílica de Nuestra Señora del Pilar y la Catedral de San Salvador «La Seo», de fácil acceso a las principales vías de comunicación, se encuentra ubicado en el centro neurálgico del sector comercial, cultural y de ocio de la ciudad.

- Cuenta con 78 confortables habitaciones con: - Baño completo. - TV. - Aire acondicionado. - Teléfono directo. - Caja fuerte.
- Parking próximo.
- Restaurante y cafetería.
- Así como salones de distinta capacidad para reuniones, convenciones, bodas y banquetes.

<ul><li>Parking concertado.</li><li>Admiten perros.</li></ul>

The Hotel is set in the very centre of Zaragoza, next to the Basílica de Nuestra Señora del Pilar and the La Seo, San Salvador Cathedral. It has direct access to all the main roads and is at the commercial, cultural and recreational heart of the city.
- There are 78 comfortable rooms with: En suite bathroom,  TV,  Air conditioning,  Direct dialling telephone,  Safe deposit box
- Parking nearby
- Restaurant and cafeteria.
- There are also function rooms for meetings, conferences, weddings and banquets.";"Hotel 3 estrellas";"66";"117";"676899.05 4613866.15";2021-04-22T07:49:38Z;"https://www.zaragoza.es/sede/portal/turismo/servicio/alojamiento/78";"https://www.zaragoza.es/sede/portal/turismo/servicio/alojamiento/78";"http://www.zaragoza.es/api/recurso/turismo/alojamiento/78"
"https://www.zaragoza.es/sede/portal/turismo/servicio/alojamiento/1102";"HOTEL CATALONIA EL PILAR";"C/ Manifestación, 16 <strong><abbr title=""Teléfono"">Tel.:</abbr></strong> 976 20 58 58";"C/ Manifestación, 16";"50003";"Zaragoza";"976 20 58 58";"";"elpilar@hoteles-catalonia.es";"http://www.hoteles-catalonia.es";"";"";"true";"<div><img src=""/cont/paginas/sinbarreras/img/icono_acomp1.jpg"" alt=""Accesible con Acompañante""/> Accesible con Acompañante</div><ul><li><strong>Aparcamiento</strong>: No     </li><li><strong>Acceso</strong>: Rampa con escalón salvable con acompañante. Puerta principal giratoria con escalón. Puerta accesible por la cafetería, se abre por dentro.</li><li><strong>Movilidad en el interior del edificio:</strong><ul><li><strong>Zonas comunes:</strong><ul><li> Recepción con mostrador  adaptado: Sí</li><li>Espacios Amplios: Sí</li><li>Ascensor Adaptado: Sí. Buena iluminación y marcador visual</li><li>Cafetería/Restaurante:  Acceso mediante ascensor planta ¿1 al restaurante y buffet. Acceso cafetería planta calle rampa con escalón que se abre desde dentro</li></ul></li>        <li><strong>Habitaciones:</strong>  <ul>            <li> Habitaciones Adaptadas: Dispone de 1.</li>            <li>Puertas: Adaptadas en anchura.</li>       <li>Armario-Vestidor: Adaptados en altura pero algo estrechos para realizar el giro</li>          <li>Espacios Amplios. Sí, no hay dificultad de giro </li><li>Aseos Adaptados: Sí. Ducha con pequeño bordillo salvable sin barras con banqueta . El wc adaptado con barra fija y abatible. Lavabo suspendido con espejo adaptado en altura</li>        </ul></li></ul></li></ul><p><em>Información   facilitada por Disminuidos Físicos de Aragón</em></p>";"";"Hotel 4 estrellas";"65";"125";"676536.11 4613962.16";2021-04-22T07:49:38Z;"https://www.zaragoza.es/sede/portal/turismo/servicio/alojamiento/1102";"https://www.zaragoza.es/sede/portal/turismo/servicio/alojamiento/1102";"http://www.zaragoza.es/api/recurso/turismo/alojamiento/1102"
"https://www.zaragoza.es/sede/portal/turismo/servicio/alojamiento/109";"HOTEL NH SPORT";"C/ Moncayo, 5 <strong><abbr title=""Teléfono"">Tel.:</abbr></strong> 976 31 11 14";"C/ Moncayo, 5";"50010";"Zaragoza";"976 31 11 14";"976 33 06 89";"nhsport@nh-hotels.com";"http://https://www.nh-hoteles.es/hotel/nh-sport";"//www.zaragoza.es/cont/paginas/turismo/oficina/rsc/img/empresa/I_NHhoteles.jpg";"//www.zaragoza.es/cont/paginas/turismo/oficina/rsc/img/empresa/L_NH%20Hoteles.jpg";"true";"<div><img src=""/cont/paginas/sinbarreras/img/icono_silla1.jpg"" alt=""Accesible""/> Accesible </div>
<ul>
    <li><strong>Aparcamiento</strong>: Dos plazas reservadas (sin señalizar)   </li>
    <li><strong>Entrada</strong>: Adaptada a cota cero, puertas automáticas.    </li>
    <li><strong>Movilidad en el interior del edificio:</strong>
    <ul>
        <li><strong>Zonas comunes:</strong>
        <ul>
            <li> Recepción con mostrador no adaptado en altura. Servicio personalizado.</li>
            <li>Espacios Amplios:  Sí. Pavimento de moqueta.</li>
            <li>Ascensor Adaptado:  Sí. Con espejo, barra de apoyo, botonera en braille. Dispositivo sonoro.</li>
            <li>Aseos Adaptados: Sí.</li>
            <li>Zonas comunes: Zona de desayunos, salón de encuentros y reuniones.</li>
        </ul>
        </li>
        <li><strong>Habitaciones:</strong>
        <ul>
            <li> Habitaciones Adaptadas: Dispone de 2.</li>
            <li>Puertas: Adaptadas en anchura. con espacios amplios                            </li>
            <li>Espacios Amplios. Sí, no hay dificultad de giro </li>
            <li>Aseos Adaptados: Sí. Ducha a cota cero, asiento abatible y barras de apoyo. Inodoro con espacio para la transferencia lateral y barras de apoyo, fija y móvil. Lavabo sin pedestal y espejo inclinado.</li>
        </ul>
        </li>
    </ul>
    </li>
</ul>
<p><em>Información facilitada por Disminuidos Físicos de Aragón</em></p>";"El Hotel  Sport, situado en una zona residencial y comercial, junto al Parque Roma y muy próximo a la nueva estación Intermodal del AVE, es un hotel funcional y muy acogedor, con el estilo que caracteriza a los establecimientos NH.
- 64 habitaciones con: teléfono directo, Pay TV, Canal +, Canal Digital, minibar, aire acondicionado; kit de aseo gratuito, secador de pelo, camas reclinables, almohadas a la carta. 
- Desayuno buffet, restaurante, bar cafetería, café de madrugadores, prensa diaria.
- Parking privado. 
- Sala musculación junto al hotel.
- Parking propio


The Hotel Sport, situated in the commercial and residential zone next to Parque Roma and close to the Intermodal station is a comfortable, functional hotel, characteristic of NH establishments.
- 64 rooms with: direct dialling telephone lines, Pay TV, Canal +, Canal Digital, minibar, air conditioning, free bathroom kit, hair dryer, reclining beds and pillow menu. 
- Breakfast buffet, restaurant, bar cafeteria, early morning coffee, daily press
- Private parking
- Fitness suite next to the hotel";"Hotel 3 estrellas";"64";"112";"675376.63 4613229.5";2021-04-22T07:49:38Z;"https://www.zaragoza.es/sede/portal/turismo/servicio/alojamiento/109";"https://www.zaragoza.es/sede/portal/turismo/servicio/alojamiento/109";"http://www.zaragoza.es/api/recurso/turismo/alojamiento/109"
"https://www.zaragoza.es/sede/portal/turismo/servicio/alojamiento/135";"APARTAMENTOS LOS GIRASOLES";"Avda. César Augusto, 27 <strong><abbr title=""Teléfono"">Tel.:</abbr></strong> 976 46 92 00";"Avda. César Augusto, 27";"50004";"Zaragoza";"976 46 92 00";"976 46 92 01";"comercial@eizasahoteles.com";"http://www.losgirasoles.info";"//www.zaragoza.es/cont/paginas/turismo/oficina/rsc/img/empresa/girasoles2.jpg";"//www.zaragoza.es/cont/paginas/turismo/oficina/rsc/img/empresa/053-los-girasoles.gif";"true";"";"Un lugar diferente para sentirse como en casa. Estancias diarias, semanales y mensuales.
Su situación privilegiada, permite disfrutar a pie de los atractivos turísticos de la ciudad.
En Los Girasoles disfrutará de las ventajas de un apartamento completamente equipado con todos los servicios de un hotel.
Ideal para viajes de negocios, vacaciones familiares, turismo, etc 
- 64 Suite-apartamentos con 1, 2 ó 3 dormitorios, sala de estar, cocina, jacuzzi, caja fuerte, TV, Canal plus, conexión a Internet (adsl), teléfono directo, 
- Cafetería Restaurante VAN GOGH. 
- Fitness Center: piscina exterior, saunas, rayos UVA, fisioterapeuta.
- Parking en el mismo edificio.
- Salón NANTES con capacidad hasta 40-50 personas. Equipamiento audiovisual. Videoconferiencia




A unique location that makes you feel at home - daily, weekly or monthly bookings. 
All city attractions and places of interest within walking distance. 
Los Girasoles offers all the advantages of a fully equipped apartment with the services of a hotel.
Ideal for business trips, family holidays or tourism
- 64 apartment-suites with 1, 2 or 3 bedrooms, lounge, kitchen, jacuzzi, safe deposit box, TV, Canal plus, broadband internet connection and direct dialling telephone line.";"Apartamento Turístico";"64";"175";"676254.58 4613652.82";2021-09-15T11:23:47Z;"https://www.zaragoza.es/sede/portal/turismo/servicio/alojamiento/135";"https://www.zaragoza.es/sede/portal/turismo/servicio/alojamiento/135";"http://www.zaragoza.es/api/recurso/turismo/alojamiento/135"
"https://www.zaragoza.es/sede/portal/turismo/servicio/alojamiento/1060";"PENSIÓN LABORRA";"C/ Duquesa  Villahermosa, 4, 1ºA-B-C, 2ºC, 4º C, 7ºA-B, 8ºC, 11º C <strong><abbr title=""Teléfono"">Tel.:</abbr></strong> 976 34 30 05";"C/ Duquesa  Villahermosa, 4, 1ºA-B-C, 2ºC, 4º C, 7ºA-B, 8ºC, 11º C";"50010";"Zaragoza";"976 34 30 05";"976 34 30 05";"info@pensionlaborra.es";"http://www.pensionlaborra.es/inicio.html";"";"";"true";"";"Habitaciones con baño, ducha ó lavabo.";"Pensión";"62";"89";"674998.59 4613176.49";2021-05-06T15:14:18Z;"https://www.zaragoza.es/sede/portal/turismo/servicio/alojamiento/1060";"https://www.zaragoza.es/sede/portal/turismo/servicio/alojamiento/1060";"http://www.zaragoza.es/api/recurso/turismo/alojamiento/1060"
"https://www.zaragoza.es/sede/portal/turismo/servicio/alojamiento/221";"HOTEL MONASTERIO DE PIEDRA. MONUMENTO &amp; SPA";"C/ Afueras s/n <strong><abbr title=""Teléfono"">Tel.:</abbr></strong> 976 84 90 11";"C/ Afueras s/n";"50210";"Nuévalos";"976 84 90 11";"976 849054";"dirhotel@monasteriopiedra.com";"http://www.monasteriopiedra.com";"//www.zaragoza.es/cont/paginas/turismo/oficina/rsc/img/empresa/I_Monasterio.jpg";"//www.zaragoza.es/cont/paginas/turismo/oficina/rsc/img/empresa/058-hotel-monasterio.gif";"true";"";"El Monasterio de Piedra Hotel está enclavado en el antiguo monasterio cisterciense del siglo XII, del cual ha heredado unas estancias al más puro estilo gótico y renacentista como la espectacular escalinata, los pasillos y las habitaciones. Las 61 habitaciones que ofrecen vistas al Parque Natural y diez de ellas al antiguo monasterio, cuentan con las máximas comodidades, un placer para sentir y disfrutar al igual que sucede con el restaurante Reyes de Aragón, dónde se puede degustar el sabor de la cocina internacional y aragonesa. En un lugar así, las reuniones para profesionales se convierten en una experiencia única. El Monasterio de Piedra Hotel dispone de seis salas de reuniones para acoger jornadas y gestiones de trabajo.




The Monasterio de Piedra Hotel is set in the 12th century Cistercian Monastery, from which it has inherited some authentic Gothic and Renaissance features such as the spiral staircase, its hallways and the decoration of the rooms. There are 61 rooms with views of the Natural Park; ten of them overlook the monastery itself and they are all attractively decorated. The outstanding Reyes de Aragón restaurant serves Aragonese and international cuisine. In a location such as this, a professional, working meeting becomes a unique experience. The Monasterio de Piedra Hotel has six meeting rooms for corporate meetings and similar events.";"Hotel 3 estrellas";"61";"114";"";2021-04-22T07:49:38Z;"https://www.zaragoza.es/sede/portal/turismo/servicio/alojamiento/221";"https://www.zaragoza.es/sede/portal/turismo/servicio/alojamiento/221";"http://www.zaragoza.es/api/recurso/turismo/alojamiento/221"
"https://www.zaragoza.es/sede/portal/turismo/servicio/alojamiento/184";"HOTEL LAS VENTAS";"Autovia de Logroño, km.10,5 <strong><abbr title=""Teléfono"">Tel.:</abbr></strong> 976 77 04 82";"Autovia de Logroño, km.10,5";"50180";"Utebo";"976 77 04 82";"";"recepcion.lasventas@srhoteles.es";"http://www.hotellasventas.com";"//www.zaragoza.es/cont/paginas/turismo/oficina/rsc/img/empresa/I_Ventas.jpg";"//www.zaragoza.es/cont/paginas/turismo/oficina/rsc/img/empresa/L_SrHoteles.jpg";"true";"";"El hotel  Las Ventas está situado estratégicamente ya que está próximo al Aeropuerto de Zaragoza, al Parque empresarial PLAZA y a la Feria de Muestras y a tan sólo 10 km del Centro de la ciudad de Zaragoza y de la Estación Intermodal Delicias.

Luminoso, amplio y abierto a una zona ajardinada que cuenta con piscina exterior, pista de tenis y zona recreativa infantil es la mejor opción para quienes vienen buscando la tranquilidad y descanso sin renunciar al confort y servicios de un auténtico complejo hotelero. Además disponemos de un amplio parking exterior gratuito para todo tipo de vehículos y de muy fácil acceso.

El hotel Las Ventas tiene 58 habitaciones con wifi gratuito, aire acondicionado y calefacción, TV , mesa escritorio, teléfono y baño completo. Además dispone de una cafetería con una amplia variedad de tapas y bocadillos y con un menú semanal  . También podrás encontrar en su interior amplios salones con luz natural para celebrar cualquier tipo de reunión o comida en Utebo. Dentro del hotel ponemos a tu disposición wifi gratuito.
Tanto si vienes por trabajo como si estás de paso el Hotel Las Ventas hará que tu estancia sea especial por el trato personalizado que ofrecemos, por nuestras amplias instalaciones, por la tranquilidad del entorno y por nuestra buena comunicación con Zaragoza";"Hotel 3 estrellas";"58";"100";"667425.86 4618158.81";2021-04-22T07:49:38Z;"https://www.zaragoza.es/sede/portal/turismo/servicio/alojamiento/184";"https://www.zaragoza.es/sede/portal/turismo/servicio/alojamiento/184";"http://www.zaragoza.es/api/recurso/turismo/alojamiento/184"
"https://www.zaragoza.es/sede/portal/turismo/servicio/alojamiento/12768";"HOTEL BOUTIQUE MAZA";"Pza. de España, 7 <strong><abbr title=""Teléfono"">Tel.:</abbr></strong> 976 22 93 55";"Pza. de España, 7";"50001";"Zaragoza";"976 22 93 55";"976 21 39 01";"reservas@hotelboutiquemaza.com";"http://www.hotelboutiquemaza.com";"//www.zaragoza.es/cont/paginas/turismo/oficina/rsc/img/empresa/I_HotelMaza.png";"//www.zaragoza.es/cont/paginas/turismo/oficina/rsc/img/empresa/L_HMaza.jpg";"true";"<p><strong>Accesibilidad Física:</strong><ul><li>En reforma, a partir de octubre, habrá habitaciones para personas con movilidad reducida</li></ul></p><p><em>Información facilitada por Disminuidos Físicos de Aragón</em></p>";"<p><strong>Accesibilidad Física:</strong><ul><li>En reforma, a partir de octubre, habrá habitaciones para personas con movilidad reducida</li></ul></p><p><em>Información facilitada por Disminuidos Físicos de Aragón</em></p>";"Hotel 2 estrellas";"53";"89";"676585.93 4613478.57";2021-04-22T07:49:38Z;"https://www.zaragoza.es/sede/portal/turismo/servicio/alojamiento/12768";"https://www.zaragoza.es/sede/portal/turismo/servicio/alojamiento/12768";"http://www.zaragoza.es/api/recurso/turismo/alojamiento/12768"
"https://www.zaragoza.es/sede/portal/turismo/servicio/alojamiento/30702";"NUEVO HOTEL HORUS";"C/ Escoriaza y Fabro 45 <strong><abbr title=""Teléfono"">Tel.:</abbr></strong> 976 31 29 83";"C/ Escoriaza y Fabro 45";"50010";"Zaragoza";"976 31 29 83";"";"direccion@nuevohotelhorus.com";"http://hotelhoruszaragoza.es/es/";"";"";"";"";"";"Hotel 2 estrellas";"53";"98";"";2021-05-06T11:32:36Z;"https://www.zaragoza.es/sede/portal/turismo/servicio/alojamiento/30702";"https://www.zaragoza.es/sede/portal/turismo/servicio/alojamiento/30702";"http://www.zaragoza.es/api/recurso/turismo/alojamiento/30702"
"https://www.zaragoza.es/sede/portal/turismo/servicio/alojamiento/53";"HOSTAL CATALUÑA";"C/ Coso, 94-96 <strong><abbr title=""Teléfono"">Tel.:</abbr></strong> 976 21 69 38";"C/ Coso, 94-96";"50001";"Zaragoza";"976 21 69 38";"976 21 08 03";"reservas@hostalcataluna.es";"http://www.hostalcataluña.es";"//www.zaragoza.es/cont/paginas/turismo/oficina/rsc/img/empresa/hostalcataluna2.jpg";"//www.zaragoza.es/cont/paginas/turismo/oficina/rsc/img/empresa/051-hostal-cataluna.gif";"true";"";"El Hostal Cataluña está ubicado en pleno Centro Histórico-Comercial de la ciudad.
Dispone de 51 habitaciones, con baño completo, televisión, teléfono, aire acondicionado, calefacción, servicio de lavandería, Bar-Cafetería y parking próximo.



The Hostal Cataluña is situated in the historic-commercial centre of Zaragoza.
There are 51 rooms, en suite bathroom, television, telephone, air conditioning, central heating, laundry service, Bar-Cafeteria and there is parking nearby.";"Hostal";"51";"93";"676848.06 4613404.59";2021-04-22T07:49:38Z;"https://www.zaragoza.es/sede/portal/turismo/servicio/alojamiento/53";"https://www.zaragoza.es/sede/portal/turismo/servicio/alojamiento/53";"http://www.zaragoza.es/api/recurso/turismo/alojamiento/53"
